[{"urlMichelin":"https://restaurant.michelin.fr/2eo1t6h/agape-paris-17","address":{"thoroughfare":"51 Rue Jouffroy-d'Abbans","postalcode":"75017","locality":"Paris 17"},"name":"Agapé","chef":"Yoshitaka Takayanagi","stars":1,"isOnLaF":false},{"urlMichelin":"https://restaurant.michelin.fr/28u6ql7/le-jardin-des-remparts-beaune","address":{"thoroughfare":"10 rue Hôtel-Dieu","postalcode":"21200","locality":"Beaune"},"name":"Le Jardin des Remparts","chef":"Christophe Bocquillon","stars":1,"isOnLaF":false},{"urlMichelin":"https://restaurant.michelin.fr/295q5w8/frederic-doucet-charolles","address":{"thoroughfare":"2 avenue de la Libération","postalcode":"71120","locality":"Charolles"},"name":"Frédéric Doucet","chef":"Frédéric Doucet","stars":1,"isOnLaF":false},{"urlMichelin":"https://restaurant.michelin.fr/2af46v7/le-pre-catelan-paris-16","address":{"thoroughfare":"Route de Suresnes","postalcode":"75016","locality":"Paris"},"name":"Le Pré Catelan","chef":"Chef Frédéric Anton","stars":3,"isOnLaF":false},{"urlMichelin":"https://restaurant.michelin.fr/29tj1pj/auberge-de-lile-barbe-lyon-09","address":{"thoroughfare":"1 Place Notre-Dame","postalcode":"69009","locality":"Lyon 09"},"name":"Auberge de l'Île Barbe","chef":"Jean-Christophe Ansanay-Alex","stars":1,"isOnLaF":false},{"urlMichelin":"https://restaurant.michelin.fr/2cz1lgu/aigue-marine-treguier","address":{"thoroughfare":"5 r. M. -Berthelot","postalcode":"22220","locality":"Tréguier"},"name":"Aigue Marine","chef":"LAISNEY Stanislas","stars":1,"isOnLaF":false},{"urlMichelin":"https://restaurant.michelin.fr/2fd19do/le-39v-paris-08","address":{"thoroughfare":"39 Avenue George V","postalcode":"75008","locality":"Paris 08"},"name":"Le 39V","chef":"Frédéric Vardon","stars":1,"isOnLaF":false},{"urlMichelin":"https://restaurant.michelin.fr/sntd30zx/le-clarence-paris-08","address":{"thoroughfare":"31 Avenue Franklin Delano Roosevelt","postalcode":"75008","locality":"Paris 08"},"name":"Le Clarence","chef":"Christophe Pelé","stars":2,"isOnLaF":false},{"urlMichelin":"https://restaurant.michelin.fr/2x1lce26/le-saint-esteve-le-tholonet","address":{"thoroughfare":"2250 route cézanne D17","postalcode":"13100","locality":"Le Tholonet"},"name":"Le Saint-Estève","chef":"Mathias Dandine","stars":1,"isOnLaF":false},{"urlMichelin":"https://restaurant.michelin.fr/298563e/jys-colmar","address":{"thoroughfare":"17 r. de la Poissonnerie","postalcode":"68000","locality":"Colmar"},"name":"JY'S","chef":"Jean-Yves Schillinger","stars":2,"isOnLaF":false},{"urlMichelin":"https://restaurant.michelin.fr/2a7qx35/restaurant-du-palais-royal-paris-01","address":{"thoroughfare":"110 Galerie de Valois - Jardin du Palais Royal","postalcode":"75001","locality":"Paris 01"},"name":"Restaurant du Palais Royal","chef":"Philip Chronopoulos","stars":1,"isOnLaF":false},{"urlMichelin":"https://restaurant.michelin.fr/29ol879/les-pecheurs-antibes","address":{"thoroughfare":"10 boulevard du Maréchal-Juin","postalcode":"06600","locality":"Antibes"},"name":"Les Pêcheurs","chef":"Nicolas RONDELLI","stars":1,"isOnLaF":false},{"urlMichelin":"https://restaurant.michelin.fr/2e06z2s/la-table-de-franck-putelat-carcassonne","address":{"thoroughfare":"80 chemin des Anglais","postalcode":"11000","locality":"Carcassonne"},"name":"La Table de Franck Putelat","chef":"Mr Franck PUTELAT","stars":2,"isOnLaF":false},{"urlMichelin":"https://restaurant.michelin.fr/2cfem9h/le-restaurant-paris-06","address":{"thoroughfare":"13 rue des Beaux-Arts","postalcode":"75006","locality":"Paris 06"},"name":"Le Restaurant","chef":"Julien Montbabut","stars":1,"isOnLaF":false},{"urlMichelin":"https://restaurant.michelin.fr/2bmu0gi/christophe-bacquie-le-castellet","address":{"thoroughfare":"Hotel du Castellet Route des Hauts du Camp","postalcode":"83330","locality":"Le Castellet"},"name":"Christophe Bacquié","chef":"Christophe Bacquié","stars":3,"isOnLaF":false},{"urlMichelin":"https://restaurant.michelin.fr/29tbf1t/paul-bocuse-collonges-au-mont-dor","address":{"thoroughfare":"40 Quai de la Plage","postalcode":"69660","locality":"Collonges-au-Mont-d'Or"},"name":"Paul Bocuse","chef":"Paul BOCUSE","stars":3,"isOnLaF":false},{"urlMichelin":"https://restaurant.michelin.fr/28xeo4n/lorangerie-du-chateau-blois","address":{"thoroughfare":"1 Avenue du Docteur Jean Laigret","postalcode":"41000","locality":"Blois"},"name":"L'Orangerie du Château","chef":"Jean-Marc Molveaux","stars":1,"isOnLaF":false},{"urlMichelin":"https://restaurant.michelin.fr/389tiwsv/fanny-rey-jonathan-wahid-saint-remy-de-provence","address":{"thoroughfare":"12, boulevard Mirabeau","postalcode":"13210","locality":"SAINT REMY DE PROVENCE"},"name":"Fanny Rey & Jonathan Wahid","chef":"Fanny Rey & Jonathan Wahid","stars":1,"isOnLaF":false},{"urlMichelin":"https://restaurant.michelin.fr/2fa1zgi202/la-liegeoise-wimereux","address":{"thoroughfare":"digue de mer","postalcode":"62930","locality":"Wimereux"},"name":"La Liégeoise","chef":"Benjamin Delpierre","stars":1,"isOnLaF":false},{"urlMichelin":"https://restaurant.michelin.fr/280mq6yn/paloma-mougins","address":{"thoroughfare":"47 Avenue du Moulin de la Croix","postalcode":"06250","locality":"Mougins"},"name":"Paloma","chef":"Nicolas DECHERCHI","stars":2,"isOnLaF":false},{"urlMichelin":"https://restaurant.michelin.fr/2bj8gr9/le-saint-james-bouliac","address":{"thoroughfare":"3 pl. Camille-Hostein","postalcode":"33270","locality":"BOULIAC"},"name":"Le Saint-James","chef":"Nicolas Magie","stars":1,"isOnLaF":false},{"urlMichelin":"https://restaurant.michelin.fr/2bm9rwc/patrick-jeffroy-carantec","address":{"thoroughfare":"20 rue du Kelenn","postalcode":"29660","locality":"Carantec"},"name":"Patrick Jeffroy","chef":"Patrick Jeffroy","stars":2,"isOnLaF":false},{"urlMichelin":"https://restaurant.michelin.fr/2et3r6g/mere-brazier-lyon","address":{"thoroughfare":"12 rue Royale","postalcode":"69001","locality":"LYON"},"name":"Mère Brazier","chef":"Mathieu Viannay","stars":2,"isOnLaF":false},{"urlMichelin":"https://restaurant.michelin.fr/2aa5u1w/le-violon-dingres-paris-07","address":{"thoroughfare":"135 Rue Saint-Dominique","postalcode":"75007","locality":"Paris"},"name":"Le Violon d'Ingres","chef":"Christian Constant","stars":1,"isOnLaF":false},{"urlMichelin":"https://restaurant.michelin.fr/2fdwgd3/les-tablettes-de-jean-louis-nomicos-paris-16","address":{"thoroughfare":"16 Avenue Bugeaud","postalcode":"75016","locality":"Paris"},"name":"Les Tablettes de Jean-Louis Nomicos","chef":"Jean-Louis Nomicos","stars":1,"isOnLaF":false},{"urlMichelin":"https://restaurant.michelin.fr/28vws7k/la-tour-des-vents-monbazillac","address":{"thoroughfare":"Le Moulin de Malfourat","postalcode":"24240","locality":"Monbazillac"},"name":"La Tour des Vents","chef":"Damien Fagette","stars":1,"isOnLaF":false},{"urlMichelin":"https://restaurant.michelin.fr/2bn8o1t/hostellerie-de-labbaye-de-la-celle-la-celle","address":{"thoroughfare":"10 Place Général de Gaulle","postalcode":"83170","locality":"La Celle"},"name":"Hostellerie de l'Abbaye de la Celle","chef":"Nicolas Pierantoni","stars":1,"isOnLaF":false},{"urlMichelin":"https://restaurant.michelin.fr/2bk7w2q/le-moulin-du-roc-champagnac-de-belair","address":{"thoroughfare":"Avenue Eugène Le Roy","postalcode":"24530","locality":"Champagnac-de-Belair"},"name":"Le Moulin du Roc","chef":"Alain Gardillou","stars":1,"isOnLaF":false},{"urlMichelin":"https://restaurant.michelin.fr/29tfnmd288/tetedoie-lyon-05","address":{"thoroughfare":"4 Rue Professeur Pierre Marion","postalcode":"69005","locality":"Lyon 05"},"name":"Têtedoie","chef":"Christian Têtedoie","stars":1,"isOnLaF":false},{"urlMichelin":"https://restaurant.michelin.fr/2ep5ghq/le-cloitre-mane","address":{"thoroughfare":"Le Cloitre","postalcode":"04300","locality":"Mane"},"name":"Le Cloître","chef":"Jerome Roy","stars":1,"isOnLaF":false},{"urlMichelin":"https://restaurant.michelin.fr/6f226za/sur-mesure-par-thierry-marx-paris-01","address":{"thoroughfare":"251 Rue Saint Honoré","postalcode":"75001","locality":"Paris"},"name":"Sur Mesure par Thierry Marx","chef":"Thierry Marx","stars":2,"isOnLaF":false},{"urlMichelin":"https://restaurant.michelin.fr/2as8r3a/lalmandin-saint-cyprien-plage","address":{"thoroughfare":"Boulevard de l'Almandin","postalcode":"66750","locality":"Saint-Cyprien"},"name":"L'Almandin","chef":"Christophe Schmitt","stars":1,"isOnLaF":false},{"urlMichelin":"https://restaurant.michelin.fr/2dtfbbi/le-quinzieme-cyril-lignac-paris-15","address":{"thoroughfare":"14 rue Cauchy","postalcode":"75015","locality":"Paris"},"name":"Le Quinzième - Cyril Lignac","chef":"Cyril Lignac","stars":1,"isOnLaF":false},{"urlMichelin":"https://restaurant.michelin.fr/2cur8yy/le-relais-bernard-loiseau-saulieu","address":{"thoroughfare":"2, rue d'Argentine","postalcode":"21210","locality":"Saulieu"},"name":"Le Relais Bernard Loiseau","chef":"Patrick Bertron","stars":2,"isOnLaF":false},{"urlMichelin":"https://restaurant.michelin.fr/2ab9sgk/le-taillevent-paris-08","address":{"thoroughfare":"15 Rue Lamennais","postalcode":"75008","locality":"Paris"},"name":"Le Taillevent","chef":"Alain Solivérès","stars":2,"isOnLaF":false},{"urlMichelin":"https://restaurant.michelin.fr/2bfuk4c/1217-bagnols","address":{"thoroughfare":"le bourg","postalcode":"69620","locality":"Bagnols"},"name":"1217","chef":"Jean-Alexandre OUARATTA","stars":1,"isOnLaF":false},{"urlMichelin":"https://restaurant.michelin.fr/2cliodi/assiette-champenoise-tinqueux","address":{"thoroughfare":"40 av. Paul Vaillant-Couturier","postalcode":"51430","locality":"Tinqueux"},"name":"Assiette Champenoise","chef":"Arnaud Lallement","stars":3,"isOnLaF":false},{"urlMichelin":"https://restaurant.michelin.fr/2cbq46s/la-bastide-de-moustiers-moustiers-sainte-marie","address":{"thoroughfare":"Parc naturel régional du Verdon, Chemin de Quinson","postalcode":"04360","locality":"Moustiers-Sainte-Marie"},"name":"La Bastide de Moustiers","chef":"Frédéric Garnier","stars":1,"isOnLaF":false},{"urlMichelin":"https://restaurant.michelin.fr/2bl33gu/hostellerie-berard-la-cadiere-dazur","address":{"thoroughfare":"Avenue Gabriel-Péri","postalcode":"83740","locality":"LA-CADIERE-D'AZUR"},"name":"Hostellerie Bérard","chef":"Jean-François Bérard","stars":1,"isOnLaF":false},{"urlMichelin":"https://restaurant.michelin.fr/2dnmje9/numero-3-le-tremblay-sur-mauldre","address":{"thoroughfare":"3 rue du Général de Gaulle","postalcode":"78490","locality":"Le Tremblay-sur-Mauldre"},"name":"Numéro 3","chef":"Laurent Trochain","stars":1,"isOnLaF":false},{"urlMichelin":"https://restaurant.michelin.fr/2abl39j/le-chiberta-paris-08","address":{"thoroughfare":"3 Rue Arsène Houssaye","postalcode":"75008","locality":"Paris 08"},"name":"Le Chiberta","chef":"Stéphane Laruelle","stars":1,"isOnLaF":false},{"urlMichelin":"https://restaurant.michelin.fr/2c76rmd/le-petit-nice-marseille-07","address":{"thoroughfare":"Anse de Maldormé - Corniche J. F. Kennedy","postalcode":"13007","locality":"Marseille 07"},"name":"Le Petit Nice","chef":"Gérald Passédat","stars":3,"isOnLaF":false},{"urlMichelin":"https://restaurant.michelin.fr/292xja3/la-barbacane-carcassonne","address":{"thoroughfare":"Place Auguste-Pierre-Pont","postalcode":"11000","locality":"Carcassonne"},"name":"La Barbacane","chef":"RYON Jérôme","stars":1,"isOnLaF":false},{"urlMichelin":"https://restaurant.michelin.fr/yw26sgs/le-fanal-banyuls-sur-mer","address":{"thoroughfare":"17 Avenue du Fontaulé","postalcode":"66650","locality":"Banyuls-sur-Mer"},"name":"Le Fanal","chef":"Pascal Borrell","stars":1,"isOnLaF":false},{"urlMichelin":"https://restaurant.michelin.fr/2acpe43/au-trou-gascon-paris-12","address":{"thoroughfare":"40 rue Taine","postalcode":"75012","locality":"Paris"},"name":"Au Trou Gascon","chef":"Hugo MARTIN","stars":1,"isOnLaF":false},{"urlMichelin":"https://restaurant.michelin.fr/2a7gjv9/carre-des-feuillants-paris-01","address":{"thoroughfare":"14 rue de Castiglione","postalcode":"75001","locality":"Paris 01"},"name":"Carré des Feuillants","chef":"Alain Dutournier","stars":2,"isOnLaF":false},{"urlMichelin":"https://restaurant.michelin.fr/2d9288s/le-hittau-saint-vincent-de-tyrosse","address":{"thoroughfare":"1 rue du Nouaou","postalcode":"40230","locality":"SAINT-VINCENT-DE-TYROSSE"},"name":"Le Hittau","chef":"Yannick Duc","stars":1,"isOnLaF":false},{"urlMichelin":"https://restaurant.michelin.fr/2doe0bh/dominique-bouchet-paris-08","address":{"thoroughfare":"11 Rue Treilhard","postalcode":"75008","locality":"Paris"},"name":"Dominique Bouchet","chef":"Dominique Bouchet","stars":1,"isOnLaF":false},{"urlMichelin":"https://restaurant.michelin.fr/9rnckmj/ga-au-manoir-de-retival-caudebec-en-caux","address":{"thoroughfare":"2 rue St. Clair","postalcode":"76490","locality":"Caudebec-en-Caux"},"name":"G.a. au Manoir de Rétival","chef":"David Goerne","stars":1,"isOnLaF":false},{"urlMichelin":"https://restaurant.michelin.fr/2d440f7/mirazur-menton","address":{"thoroughfare":"30, Avenue Aristide Briand","postalcode":"06500","locality":"Menton"},"name":"Mirazur","chef":"Mauro Colagreco","stars":2,"isOnLaF":false},{"urlMichelin":"https://restaurant.michelin.fr/2aqe7bm/gill-rouen","address":{"thoroughfare":"9 quai de la Bourse","postalcode":"76000","locality":"Rouen"},"name":"Gill","chef":"Gilles Tournadre","stars":2,"isOnLaF":false},{"urlMichelin":"https://restaurant.michelin.fr/2dse7wh/le-magasin-aux-vivres-metz","address":{"thoroughfare":"5 Avenue Ney","postalcode":"57000","locality":"Metz"},"name":"Le Magasin aux Vivres","chef":"Christophe Dufossé","stars":1,"isOnLaF":false},{"urlMichelin":"https://restaurant.michelin.fr/28zbkc6/la-marelle-peronnas","address":{"thoroughfare":"1593 av. de Lyon","postalcode":"01960","locality":"PERONNAS"},"name":"La Marelle","chef":"Didier Goiffon","stars":1,"isOnLaF":false},{"urlMichelin":"https://restaurant.michelin.fr/jgnpf8y/la-dame-de-pic-paris-01","address":{"thoroughfare":"20 Rue du Louvre","postalcode":"75001","locality":"Paris 01"},"name":"La Dame de Pic","chef":"Anne-Sophie Pic","stars":1,"isOnLaF":false},{"urlMichelin":"https://restaurant.michelin.fr/2b6sa1u/le-pressoir-saint-ave","address":{"thoroughfare":"7 r. de l'Hôpital","postalcode":"56890","locality":"Saint-Avé"},"name":"Le Pressoir","chef":"Vincent David","stars":1,"isOnLaF":false},{"urlMichelin":"https://restaurant.michelin.fr/2bcbfo0/chateau-de-pray-amboise","address":{"thoroughfare":"Rue du Cèdre","postalcode":"37400","locality":"Amboise"},"name":"Château de Pray","chef":"Arnaud Philippon","stars":1,"isOnLaF":false},{"urlMichelin":"https://restaurant.michelin.fr/2fdi6av208/il-carpaccio-paris-08","address":{"thoroughfare":"37 avenue Hoche","postalcode":"75008","locality":"Paris 08"},"name":"Il Carpaccio","chef":"","stars":1,"isOnLaF":false},{"urlMichelin":"https://restaurant.michelin.fr/2aru9pt/aux-pesked-saint-brieuc","address":{"thoroughfare":"59 Rue du Légué","postalcode":"22000","locality":"Saint-Brieuc"},"name":"Aux Pesked","chef":"Mathieu Aumont","stars":1,"isOnLaF":false},{"urlMichelin":"https://restaurant.michelin.fr/q8lel2a/en-marge-aureville","address":{"thoroughfare":"1204 route de la Croix-Falgarde","postalcode":"31320","locality":"AUREVILLE"},"name":"En Marge","chef":"Frank Renimel","stars":1,"isOnLaF":false},{"urlMichelin":"https://restaurant.michelin.fr/29ib1yg/auberge-du-vieux-puits-fontjoncouse","address":{"thoroughfare":"5 Avenue Saint-Victor","postalcode":"11360","locality":"Fontjoncouse"},"name":"Auberge du Vieux Puits","chef":"Gilles Goujon","stars":3,"isOnLaF":false},{"urlMichelin":"https://restaurant.michelin.fr/2bmf006/domaine-dauriac-carcassonne","address":{"thoroughfare":"Route de Saint-Hilaire","postalcode":"11000","locality":"Carcassonne"},"name":"Domaine d'Auriac","chef":"Philippe Deschamps","stars":1,"isOnLaF":false},{"urlMichelin":"https://restaurant.michelin.fr/28tn79w/loustau-de-baumaniere-les-baux-de-provence","address":{"thoroughfare":"Village des Baux-de-Provence","postalcode":"13520","locality":"Les Baux-de-Provence"},"name":"L'Oustau de Baumanière","chef":"Jean-André Charial","stars":2,"isOnLaF":false},{"urlMichelin":"https://restaurant.michelin.fr/2ax5yy8/les-fresques-monestier","address":{"thoroughfare":"D18","postalcode":"24240","locality":"Monestier"},"name":"Les Fresques","chef":"Didier Casaguana","stars":1,"isOnLaF":false},{"urlMichelin":"https://restaurant.michelin.fr/29s5co3/bruno-lorgues","address":{"thoroughfare":"2350 route des Arcs, Campagne Mariette","postalcode":"83510","locality":"Lorgues"},"name":"Bruno","chef":"Benjamin Bruno","stars":1,"isOnLaF":false},{"urlMichelin":"https://restaurant.michelin.fr/2csipcf/la-maison-de-bournissac-noves","address":{"thoroughfare":"montée d'Eyragues","postalcode":"13550","locality":"Les Paluds-des-Noves"},"name":"La Maison de Bournissac","chef":"Christian Peyre","stars":1,"isOnLaF":false},{"urlMichelin":"https://restaurant.michelin.fr/u1pjp7ux/le-quincangrogne-dampmart","address":{"thoroughfare":"7 Rue de l'Abreuvoir","postalcode":"77400","locality":"Dampmart"},"name":"Le Quincangrogne","chef":"Franck Charpentier","stars":1,"isOnLaF":false},{"urlMichelin":"https://restaurant.michelin.fr/2bpwyme/auberge-du-bon-laboureur-chenonceaux","address":{"thoroughfare":"6 r. Dr Bretonneau","postalcode":"37150","locality":"Chenonceaux"},"name":"Auberge du Bon Laboureur","chef":"Antoine Jeudi","stars":1,"isOnLaF":false},{"urlMichelin":"https://restaurant.michelin.fr/2dyiess/j-m-perochon-bretignolles-sur-mer","address":{"thoroughfare":"63 avenue de la Grand'Roche","postalcode":"85470","locality":"Brétignolles-sur-Mer"},"name":"J.-M. Pérochon","chef":"Jean-Marc Pérochon","stars":1,"isOnLaF":false},{"urlMichelin":"https://restaurant.michelin.fr/2en7eas/les-bacchanales-vence","address":{"thoroughfare":"247 avenue de Provence","postalcode":"06140","locality":"VENCE"},"name":"Les Bacchanales","chef":"Christophe Dufau","stars":1,"isOnLaF":false},{"urlMichelin":"https://restaurant.michelin.fr/3409276/1920-megeve","address":{"thoroughfare":"373 chemin des follières","postalcode":"74120","locality":"Megève"},"name":"1920","chef":"Julien Gatillon","stars":2,"isOnLaF":false},{"urlMichelin":"https://restaurant.michelin.fr/29jqk2d/les-bas-rupts-bas-rupts","address":{"thoroughfare":"181 rte de la Bresse","postalcode":"88400","locality":"Bas-Rupts"},"name":"Les Bas-Rupts","chef":"Michel Philippe","stars":1,"isOnLaF":false},{"urlMichelin":"https://restaurant.michelin.fr/29dkmez/stephane-derbord-dijon","address":{"thoroughfare":"10 Place du Président Wilson","postalcode":"21000","locality":"Dijon"},"name":"Stéphane Derbord","chef":"Stéphane Derbord","stars":1,"isOnLaF":false},{"urlMichelin":"https://restaurant.michelin.fr/2bicgcl/auberge-des-templiers-les-bezards","address":{"thoroughfare":"D2007","postalcode":"45290","locality":"Les Bézards"},"name":"Auberge des Templiers","chef":"Yoshihiko MIURA","stars":1,"isOnLaF":false},{"urlMichelin":"https://restaurant.michelin.fr/2b1jv34/relais-de-la-poste-la-wantzenau","address":{"thoroughfare":"21 rue du Gén. -de-Gaulle","postalcode":"67610","locality":"LA-WANTZENAU"},"name":"Relais de la Poste","chef":"Stephan Bernhard","stars":1,"isOnLaF":false},{"urlMichelin":"https://restaurant.michelin.fr/2dr6qsw/o-flaveurs-douvaine","address":{"thoroughfare":"Château de Chilly","postalcode":"74140","locality":"Douvaine"},"name":"Ô Flaveurs","chef":"Jérôme Mamet","stars":1,"isOnLaF":false},{"urlMichelin":"https://restaurant.michelin.fr/3w3putu/la-cooperative-belesta","address":{"thoroughfare":"2A Route de Caladroy","postalcode":"66720","locality":"Bélesta"},"name":"La Coopérative","chef":"LEMAL Laurent","stars":1,"isOnLaF":false},{"urlMichelin":"https://restaurant.michelin.fr/2e2m5rq/la-table-de-patrick-raingeard-eze-bord-de-mer","address":{"thoroughfare":"1312 av. Raymond-Poincaré","postalcode":"06360","locality":"EZE-BORD-DE-MER"},"name":"La Table de Patrick Raingeard","chef":"Patrick RAINGEARD","stars":1,"isOnLaF":false},{"urlMichelin":"https://restaurant.michelin.fr/6pyhps6h/raphael-vionnet-thonon-les-bains","address":{"thoroughfare":"43 Avenue du Général Leclerc","postalcode":"74200","locality":"Thonon-les-Bains"},"name":"Raphaël Vionnet","chef":"Raphaël Vionnet","stars":1,"isOnLaF":false},{"urlMichelin":"https://restaurant.michelin.fr/290z3mh/ivan-vautier-caen","address":{"thoroughfare":"3 avenue Henry-Chéron","postalcode":"14000","locality":"Caen"},"name":"Ivan Vautier","chef":"Ivan Vautier","stars":1,"isOnLaF":false},{"urlMichelin":"https://restaurant.michelin.fr/2e1ykis/latelier-dedmond-val-disere","address":{"thoroughfare":"au Fornet","postalcode":"73150","locality":"Val-d'Isère"},"name":"L'Atelier d'Edmond","chef":"Benoît Vidal","stars":2,"isOnLaF":false},{"urlMichelin":"https://restaurant.michelin.fr/291q1xd/le-coquillage-saint-meloir-des-ondes","address":{"thoroughfare":"Lieu-dit Le Buot","postalcode":"35350","locality":"Saint-Méloir-des-Ondes"},"name":"Le Coquillage","chef":"Hugo Roellinger","stars":1,"isOnLaF":false},{"urlMichelin":"https://restaurant.michelin.fr/2fcm39b/yoann-conte-veyrier-du-lac","address":{"thoroughfare":"13 Vieille-Route-des-Pensières","postalcode":"74290","locality":"Veyrier-du-Lac"},"name":"Yoann Conte","chef":"Yoann CONTE","stars":2,"isOnLaF":false},{"urlMichelin":"https://restaurant.michelin.fr/40jnqvq/lessentiel-deauville","address":{"thoroughfare":"29 Rue Mirabeau","postalcode":"14800","locality":"DEAUVILLE"},"name":"L'Essentiel","chef":"Mi-Ra et Charles Thuillant","stars":1,"isOnLaF":false},{"urlMichelin":"https://restaurant.michelin.fr/2eqhwui/maison-clovis-lyon-06","address":{"thoroughfare":"19 bd Brotteaux","postalcode":"69006","locality":"Lyon"},"name":"Maison Clovis","chef":"Clovis Khoury","stars":1,"isOnLaF":false},{"urlMichelin":"https://restaurant.michelin.fr/28u9h7z/le-benaton-beaune","address":{"thoroughfare":"25 Rue du Faubourg-Bretonnière","postalcode":"21200","locality":"BEAUNE"},"name":"Le Bénaton","chef":"Keishi Sugimura","stars":1,"isOnLaF":false},{"urlMichelin":"https://restaurant.michelin.fr/2fe7j1g/sylvestre-paris-07","address":{"thoroughfare":"79 rue St-Dominique","postalcode":"75007","locality":"Paris"},"name":"Sylvestre","chef":"Sylvestre Wahid","stars":2,"isOnLaF":false},{"urlMichelin":"https://restaurant.michelin.fr/2c6dfrz/relais-de-la-poste-magescq","address":{"thoroughfare":"24 avenue de Maremne","postalcode":"40140","locality":"Magescq"},"name":"Relais de la Poste","chef":"Jean Coussau","stars":2,"isOnLaF":false},{"urlMichelin":"https://restaurant.michelin.fr/2bbain5/ithurria-ainhoa","address":{"thoroughfare":"pl. du Fronton","postalcode":"64250","locality":"Ainhoa"},"name":"Ithurria","chef":"Xavier Isabal","stars":1,"isOnLaF":false},{"urlMichelin":"https://restaurant.michelin.fr/2bk4rlv/le-moulin-de-labbaye-brantome-en-perigord","address":{"thoroughfare":"1 avenue Pierre de Bourdeilles","postalcode":"24310","locality":"BRANTOME"},"name":"Le Moulin de l'Abbaye","chef":"LECOIN LOIC","stars":1,"isOnLaF":false},{"urlMichelin":"https://restaurant.michelin.fr/29pia6z/chez-michele-languimberg","address":{"thoroughfare":"57 rue Principale","postalcode":"57810","locality":"Languimberg"},"name":"Chez Michèle","chef":"Bruno Poiré","stars":1,"isOnLaF":false},{"urlMichelin":"https://restaurant.michelin.fr/29bkalt/le-kleber-crest","address":{"thoroughfare":"6 r. A. -Dumont","postalcode":"26400","locality":"Crest"},"name":"Le Kléber","chef":"Sébastien Bonnet","stars":1,"isOnLaF":false},{"urlMichelin":"https://restaurant.michelin.fr/xay649ax/laparte-montrabe","address":{"thoroughfare":"21 Rue de l’Europe","postalcode":"31850","locality":"MONTRABE"},"name":"L'Aparté","chef":"le Chef Jérémy Morin","stars":1,"isOnLaF":false},{"urlMichelin":"https://restaurant.michelin.fr/2dof8zp/auguste-paris-07","address":{"thoroughfare":"54 r. Bourgogne","postalcode":"75007","locality":"Paris 07"},"name":"Auguste","chef":"Gaël Orieux","stars":1,"isOnLaF":false},{"urlMichelin":"https://restaurant.michelin.fr/2f0stuh/dyades-au-domaine-des-etangs-massignac","address":{"thoroughfare":"Les Etangs","postalcode":"16310","locality":"MASSIGNAC"},"name":"Dyades au Domaine des Étangs","chef":"","stars":1,"isOnLaF":false},{"urlMichelin":"https://restaurant.michelin.fr/29qd0ox/le-cerisier-laventie","address":{"thoroughfare":"3 rue de la Gare","postalcode":"62840","locality":"LAVENTIE"},"name":"Le Cerisier","chef":"Eric Delerue","stars":1,"isOnLaF":false},{"urlMichelin":"https://restaurant.michelin.fr/2efx4u4/lauberge-basque-saint-pee-sur-nivelle","address":{"thoroughfare":"quartier Helbarron","postalcode":"64310","locality":"Saint-Pée-sur-Nivelle"},"name":"L'Auberge Basque","chef":"Cédric Béchade","stars":1,"isOnLaF":false},{"urlMichelin":"https://restaurant.michelin.fr/2bp5jf6/la-bonne-etape-chateau-arnoux","address":{"thoroughfare":"chemin du lac","postalcode":"04160","locality":"Château-Arnoux"},"name":"La Bonne Étape","chef":"Jany Gleize","stars":1,"isOnLaF":false},{"urlMichelin":"https://restaurant.michelin.fr/2chv2z6/restaurant-du-chateau-chancelade","address":{"thoroughfare":"15 avenue des Reynats","postalcode":"24650","locality":"Chancelade"},"name":"Restaurant du Château","chef":"HABERLAND Cyril","stars":1,"isOnLaF":false},{"urlMichelin":"https://restaurant.michelin.fr/28y19tl/le-pavillon-des-boulevards-bordeaux","address":{"thoroughfare":"120 r. Croix-de-Seguey","postalcode":"33000","locality":"Bordeaux"},"name":"Le Pavillon des Boulevards","chef":"Thomas Morel","stars":1,"isOnLaF":false},{"urlMichelin":"https://restaurant.michelin.fr/2emcabb/chateau-de-courban-courban","address":{"thoroughfare":"7 rue du Lavoir","postalcode":"21520","locality":"Courban"},"name":"Château de Courban","chef":"Takashi Kinoshita","stars":1,"isOnLaF":false},{"urlMichelin":"https://restaurant.michelin.fr/2abhfav/pierre-gagnaire-paris-08","address":{"thoroughfare":"6 Rue Balzac","postalcode":"75008","locality":"Paris 08"},"name":"Pierre Gagnaire","chef":"Pierre GAGNAIRE","stars":3,"isOnLaF":false},{"urlMichelin":"https://restaurant.michelin.fr/2e4vi29/alain-llorca-la-colle-sur-loup","address":{"thoroughfare":"350 Route de Saint-Paul","postalcode":"06480","locality":"La Colle-sur-Loup"},"name":"Alain Llorca","chef":"LLORCA ALAIN","stars":1,"isOnLaF":false},{"urlMichelin":"https://restaurant.michelin.fr/2buprmi/william-frachot-dijon","address":{"thoroughfare":"5 rue Michelet","postalcode":"21000","locality":"DIJON"},"name":"William Frachot","chef":"William Frachot","stars":2,"isOnLaF":false},{"urlMichelin":"https://restaurant.michelin.fr/2aeinde/le-pergolese-paris-16","address":{"thoroughfare":"40 Rue Pergolèse","postalcode":"75116","locality":"Paris"},"name":"Le Pergolèse","chef":"Stéphane Gaborieau","stars":1,"isOnLaF":false},{"urlMichelin":"https://restaurant.michelin.fr/2aaahmg/loiseau-rive-gauche-paris-07","address":{"thoroughfare":"5 rue de Bourgogne","postalcode":"75007","locality":"Paris 07"},"name":"Loiseau rive Gauche","chef":"Maxime Laurenson","stars":1,"isOnLaF":false},{"urlMichelin":"https://restaurant.michelin.fr/2ef8rpt/loiseau-des-vignes-beaune","address":{"thoroughfare":"31 Rue Jean Francois Maufoux","postalcode":"21200","locality":"Beaune"},"name":"Loiseau des Vignes","chef":"Haddouche Mourad","stars":1,"isOnLaF":false},{"urlMichelin":"https://restaurant.michelin.fr/2buz227/la-chaumiere-dole","address":{"thoroughfare":"346 av. du Mar. -Juin","postalcode":"39100","locality":"Dole"},"name":"La Chaumière","chef":"Joël Césari","stars":1,"isOnLaF":false},{"urlMichelin":"https://restaurant.michelin.fr/29te7ik/pierre-orsi-lyon-06","address":{"thoroughfare":"Place Kléber","postalcode":"69006","locality":"Lyon 06"},"name":"Pierre Orsi","chef":"Pierre Orsi","stars":1,"isOnLaF":false},{"urlMichelin":"https://restaurant.michelin.fr/sd2y8ik/initial-caen","address":{"thoroughfare":"24 Rue Saint-Manvieu","postalcode":"14000","locality":"Caen"},"name":"Initial","chef":"Yohann Lemonnier","stars":1,"isOnLaF":false},{"urlMichelin":"https://restaurant.michelin.fr/2al6a9i/lauberge-de-la-pomme-les-damps","address":{"thoroughfare":"44 rue de l' eure","postalcode":"27340","locality":"Les Damps"},"name":"L'Auberge de la Pomme","chef":"William Boquelet","stars":1,"isOnLaF":false},{"urlMichelin":"https://restaurant.michelin.fr/yi79hbnh/julien-binz-ammerschwihr","address":{"thoroughfare":"7 Rue des Cigognes","postalcode":"68770","locality":"Ammerschwihr"},"name":"Julien Binz","chef":"Le Chef Julien Binz","stars":1,"isOnLaF":false},{"urlMichelin":"https://restaurant.michelin.fr/2cnfm96/hostellerie-du-rosenmeer-rosheim","address":{"thoroughfare":"45 avenue de la Gare","postalcode":"67560","locality":"ROSHEIM"},"name":"Hostellerie du Rosenmeer","chef":"Hubert Maetz","stars":1,"isOnLaF":false},{"urlMichelin":"https://restaurant.michelin.fr/2ehwc2a/la-licorne-royale-lyons-la-foret","address":{"thoroughfare":"27 Place Isaac Benserade","postalcode":"27480","locality":"Lyons-la-Forêt"},"name":"La Licorne Royale","chef":"Christophe POIRIER","stars":1,"isOnLaF":false},{"urlMichelin":"https://restaurant.michelin.fr/2ab5qlx/alleno-paris-au-pavillon-ledoyen-paris-08","address":{"thoroughfare":"8 avenue Dutuit","postalcode":"75008","locality":"Paris"},"name":"Alléno Paris au Pavillon Ledoyen","chef":"Yannick Alléno","stars":3,"isOnLaF":false},{"urlMichelin":"https://restaurant.michelin.fr/2b8j4np/domaine-de-clairefontaine-chonas-lamballan","address":{"thoroughfare":"chemin des Fontanettes","postalcode":"38121","locality":"Chonas-l'Amballan"},"name":"Domaine de Clairefontaine","chef":"Philippe Girardon","stars":1,"isOnLaF":false},{"urlMichelin":"https://restaurant.michelin.fr/2dix4nq137/faventia-tourrettes","address":{"thoroughfare":"3100 route de Bagnols-en-Forêt","postalcode":"83440","locality":"Tourrettes"},"name":"Faventia","chef":"Philippe Jourdin","stars":1,"isOnLaF":false},{"urlMichelin":"https://restaurant.michelin.fr/2epv4gf/le-m-brest","address":{"thoroughfare":"22 r. du Cdt-Drogou","postalcode":"29200","locality":"Brest"},"name":"Le M","chef":"Philippe Le Bigot","stars":1,"isOnLaF":false},{"urlMichelin":"https://restaurant.michelin.fr/9isyik39/lekrin-laurent-azoulay-meribel-mottaret","address":{"thoroughfare":"Route de la Montée","postalcode":"73550","locality":"MERIBEL"},"name":"L'Ekrin by Laurent Azoulay","chef":"Laurent AZOULAY","stars":1,"isOnLaF":false},{"urlMichelin":"https://restaurant.michelin.fr/2dd2ann/les-morainieres-jongieux","address":{"thoroughfare":"route de Marétel","postalcode":"73170","locality":"Jongieux"},"name":"Les Morainières","chef":"Michaël Arnoult","stars":2,"isOnLaF":false},{"urlMichelin":"https://restaurant.michelin.fr/2cnbixn/le-brittany-roscoff","address":{"thoroughfare":"bd Ste-Barbe","postalcode":"29681","locality":"Roscoff"},"name":"Le Brittany","chef":"Loic Le Bail","stars":1,"isOnLaF":false},{"urlMichelin":"https://restaurant.michelin.fr/2fdc0eg/le-baudelaire-paris-01","address":{"thoroughfare":"8 rue Duphot","postalcode":"75001","locality":"Paris 01"},"name":"Le Baudelaire","chef":"Guillaume Goupil","stars":1,"isOnLaF":false},{"urlMichelin":"https://restaurant.michelin.fr/2awwemv/le-moulin-de-la-gorce-la-roche-labeille","address":{"thoroughfare":"D17","postalcode":"87800","locality":"La Roche-l'Abeille"},"name":"Le Moulin de la Gorce","chef":"Pierre Bertranet","stars":1,"isOnLaF":false},{"urlMichelin":"https://restaurant.michelin.fr/29gdnxp256n/les-fresques-evian-les-bains","address":{"thoroughfare":"13 Avenue des Mateirons","postalcode":"74500","locality":"Évian-les-Bains"},"name":"Les Fresques","chef":"Patrice Vander","stars":1,"isOnLaF":false},{"urlMichelin":"https://restaurant.michelin.fr/4g00u3j8/le-prince-noir-vivien-durand-lormont","address":{"thoroughfare":"1 rue du Prince Noir","postalcode":"33310","locality":"Lormont"},"name":"Le Prince Noir - Vivien Durand","chef":"Durand Vivien","stars":1,"isOnLaF":false},{"urlMichelin":"https://restaurant.michelin.fr/28pf13h/le-clos-des-sens-annecy-le-vieux","address":{"thoroughfare":"13 r. J. -Mermoz","postalcode":"74940","locality":"Annecy"},"name":"Le Clos des Sens","chef":"Laurent Petit","stars":2,"isOnLaF":false},{"urlMichelin":"https://restaurant.michelin.fr/2a4echf50/le-chantecler-nice","address":{"thoroughfare":"37 Promenade des Anglais","postalcode":"06000","locality":"NICE"},"name":"Le Chantecler","chef":"Jean-Denis Rieubland","stars":2,"isOnLaF":false},{"urlMichelin":"https://restaurant.michelin.fr/8zb6c2d4/le-carmin-beaune","address":{"thoroughfare":"4B Place Carnot","postalcode":"21200","locality":"Beaune"},"name":"Le Carmin","chef":"Christophe Quéant","stars":1,"isOnLaF":false},{"urlMichelin":"https://restaurant.michelin.fr/2a8isn4/benoit-paris-04","address":{"thoroughfare":"20 Rue St-Martin","postalcode":"75004","locality":"Paris 04"},"name":"Benoit","chef":"Fabienne Eymard","stars":1,"isOnLaF":false},{"urlMichelin":"https://restaurant.michelin.fr/298i34w/hostellerie-la-montagne-colombey-les-deux-eglises","address":{"thoroughfare":"10 rue Pisseloup","postalcode":"52330","locality":"COLOMBEY-LES-DEUX-EGLISES"},"name":"Hostellerie la Montagne","chef":"Jean-Baptiste Natali","stars":1,"isOnLaF":false},{"urlMichelin":"https://restaurant.michelin.fr/2etuup9/entre-vigne-et-garrigue-pujaut","address":{"thoroughfare":"600 route de Saint Bruno","postalcode":"30131","locality":"Pujaut"},"name":"Entre Vigne et Garrigue","chef":"Serge et Maxime Chenet","stars":1,"isOnLaF":false},{"urlMichelin":"https://restaurant.michelin.fr/2aogs9u/au-vieux-couvent-rhinau","address":{"thoroughfare":"6 r. des Chanoines","postalcode":"67860","locality":"Rhinau"},"name":"Au Vieux Couvent","chef":"Alexis Albrecht","stars":1,"isOnLaF":false},{"urlMichelin":"https://restaurant.michelin.fr/s5edw9g/le-bouche-oreille-boutervilliers","address":{"thoroughfare":"11 r. de la Chapelle","postalcode":"91150","locality":"Boutervilliers"},"name":"Le Bouche à Oreille","chef":"Aymeric Dreux","stars":1,"isOnLaF":false},{"urlMichelin":"https://restaurant.michelin.fr/29uv8a7/le-refuge-des-gourmets-machilly","address":{"thoroughfare":"90 route des Framboises","postalcode":"74140","locality":"Machilly"},"name":"Le Refuge des Gourmets","chef":"Jean-Marie et Hubert Chanove","stars":1,"isOnLaF":false},{"urlMichelin":"https://restaurant.michelin.fr/29uqy46/la-rotonde-la-tour-de-salvagny","address":{"thoroughfare":"200 avenue du Casino","postalcode":"69890","locality":"LA-TOUR-DE-SALVAGNY"},"name":"La Rotonde","chef":"Jean-François MALLE","stars":1,"isOnLaF":false},{"urlMichelin":"https://restaurant.michelin.fr/u945qtuv/maximin-hellio-deauville","address":{"thoroughfare":"64 Rue Gambetta","postalcode":"14800","locality":"DEAUVILLE"},"name":"Maximin Hellio","chef":"Hellio Maximin","stars":1,"isOnLaF":false},{"urlMichelin":"https://restaurant.michelin.fr/3uonmfw/greuze-tournus","address":{"thoroughfare":"1 r. A. Thibaudet","postalcode":"71700","locality":"Tournus"},"name":"Greuze","chef":"Yohann Chapuis","stars":1,"isOnLaF":false},{"urlMichelin":"https://restaurant.michelin.fr/29v9df2/loasis-mandelieu-la-napoule","address":{"thoroughfare":"6 rue Jean-Honoré Carle","postalcode":"06210","locality":"La Napoule"},"name":"L'Oasis","chef":"Stéphane, Antoine et François Raimbault","stars":2,"isOnLaF":false},{"urlMichelin":"https://restaurant.michelin.fr/38z104i7/jan-nice","address":{"thoroughfare":"12 Rue Lascaris","postalcode":"06000","locality":"Nice"},"name":"JAN","chef":"Jan Hendrik van der Westhuizen","stars":1,"isOnLaF":false},{"urlMichelin":"https://restaurant.michelin.fr/29w4kky/une-table-au-sud-marseille-02","address":{"thoroughfare":"2 quai du Port","postalcode":"13002","locality":"Marseille"},"name":"Une Table au Sud","chef":"Ludovic Turac","stars":1,"isOnLaF":false},{"urlMichelin":"https://restaurant.michelin.fr/2blmwvy/hostellerie-les-gorges-de-pennafort-callas","address":{"thoroughfare":"8660 RD 25","postalcode":"83830","locality":"Callas"},"name":"Hostellerie Les Gorges de Pennafort","chef":"Philippe Da Silva","stars":1,"isOnLaF":false},{"urlMichelin":"https://restaurant.michelin.fr/2aw36e7/auberge-la-pomme-dapi-saint-pol-de-leon","address":{"thoroughfare":"49 r. Verderel","postalcode":"29250","locality":"Saint-Pol-de-Léon"},"name":"Auberge La Pomme d'Api","chef":"Jérémie Le Calvez","stars":1,"isOnLaF":false},{"urlMichelin":"https://restaurant.michelin.fr/2aiulws5/le-corot-ville-davray","address":{"thoroughfare":"55 Rue de Versailles","postalcode":"92410","locality":"VILLE-D'AVRAY"},"name":"Le Corot","chef":"Rémi Chambard","stars":1,"isOnLaF":false},{"urlMichelin":"https://restaurant.michelin.fr/2azofoh/la-madeleine-sens","address":{"thoroughfare":"1 Rue Alsace-Lorraine","postalcode":"89100","locality":"Sens"},"name":"La Madeleine","chef":"Patrick Gauthier","stars":1,"isOnLaF":false},{"urlMichelin":"https://restaurant.michelin.fr/28qae64/le-relais-des-moines-les-arcs","address":{"thoroughfare":"route de Ste-Roseline","postalcode":"83460","locality":"Les Arcs"},"name":"Le Relais des Moines","chef":"Sébastien Sanjou","stars":1,"isOnLaF":false},{"urlMichelin":"https://restaurant.michelin.fr/28rd58x/cyril-attrazic-aumont-aubrac","address":{"thoroughfare":"10 rte du Languedoc","postalcode":"48130","locality":"Aumont-Aubrac"},"name":"Cyril Attrazic","chef":"ATTRAZIC Cyril","stars":1,"isOnLaF":false},{"urlMichelin":"https://restaurant.michelin.fr/29p8ja1/pont-de-louysse-lacave","address":{"thoroughfare":"D23","postalcode":"46200","locality":"Lacave"},"name":"Pont de l'Ouysse","chef":"Daniel et Stéphane Chambon","stars":1,"isOnLaF":false},{"urlMichelin":"https://restaurant.michelin.fr/2cyg6yb/les-hautes-roches-rochecorbon","address":{"thoroughfare":"86 quai de Loire","postalcode":"37210","locality":"Rochecorbon"},"name":"Les Hautes Roches","chef":"Didier Edon","stars":1,"isOnLaF":false},{"urlMichelin":"https://restaurant.michelin.fr/34milgg2/auberge-tiegezh-guer","address":{"thoroughfare":"7 Place de la Gare","postalcode":"56380","locality":"Guer"},"name":"Auberge Tiegezh","chef":"Baptiste Denieul","stars":1,"isOnLaF":false},{"urlMichelin":"https://restaurant.michelin.fr/2anw751/le-grand-cerf-montchenot","address":{"thoroughfare":"50 rte Nationale","postalcode":"51500","locality":"Montchenot"},"name":"Le Grand Cerf","chef":"Dominique Giraudeau et Pascal Champion","stars":1,"isOnLaF":false},{"urlMichelin":"https://restaurant.michelin.fr/2af5lql/la-grande-cascade-paris-16","address":{"thoroughfare":"Bois de Boulogne, Carrefour de Longchamp","postalcode":"75016","locality":"Paris"},"name":"La Grande Cascade","chef":"Frédéric Robert","stars":1,"isOnLaF":false},{"urlMichelin":"https://restaurant.michelin.fr/xhr5bt96/le-jardin-de-benjamin-lorgues","address":{"thoroughfare":"Route de Salernes","postalcode":"83510","locality":"Lorgues"},"name":"Le Jardin de Benjamin","chef":"Benjamin Collombat","stars":1,"isOnLaF":false},{"urlMichelin":"https://restaurant.michelin.fr/2f4ok2n/villa-archange-le-cannet","address":{"thoroughfare":"Rue de l'Ouest","postalcode":"06110","locality":"Le Cannet"},"name":"Villa Archange","chef":"Bruno Oger","stars":2,"isOnLaF":false},{"urlMichelin":"https://restaurant.michelin.fr/2dwt9zi/le-carrousel-maringues","address":{"thoroughfare":"14 rue du Pont de Morge","postalcode":"63350","locality":"MARINGUES"},"name":"Le Carrousel","chef":"Olivier Said","stars":1,"isOnLaF":false},{"urlMichelin":"https://restaurant.michelin.fr/2enx3bmn/masa-boulogne-billancourt","address":{"thoroughfare":"112 avenue Victor-Hugo","postalcode":"92100","locality":"Boulogne-Billancourt"},"name":"MaSa","chef":"Hervé Rodriguez","stars":1,"isOnLaF":false},{"urlMichelin":"https://restaurant.michelin.fr/2ciults/anne-de-bretagne-la-plaine-sur-mer","address":{"thoroughfare":"163, Boulevard de la Tara","postalcode":"44770","locality":"La Plaine-sur-Mer"},"name":"Anne de Bretagne","chef":"Mathieu Guibert","stars":2,"isOnLaF":false},{"urlMichelin":"https://restaurant.michelin.fr/2byuiv7/la-gouesniere-saint-meloir-des-ondes","address":{"thoroughfare":"1 Le Limonay","postalcode":"35350","locality":"Saint-Méloir-des-Ondes"},"name":"La Gouesnière","chef":"Valade Olivier","stars":1,"isOnLaF":false},{"urlMichelin":"https://restaurant.michelin.fr/2a6bp6b/le-pre-du-moulin-serignan-du-comtat","address":{"thoroughfare":"rte de Ste-Cécile-les-Vignes","postalcode":"84830","locality":"Sérignan-du-Comtat"},"name":"Le Pré du Moulin","chef":"Caroline et Pascal Alonso","stars":1,"isOnLaF":false},{"urlMichelin":"https://restaurant.michelin.fr/t645yf86/villa-rene-lalique-wingen-sur-moder","address":{"thoroughfare":"18 Rue Bellevue","postalcode":"67290","locality":"Wingen-sur-Moder"},"name":"Villa René Lalique","chef":"Jean-Georges Klein","stars":2,"isOnLaF":false},{"urlMichelin":"https://restaurant.michelin.fr/2bij0t1/domaine-de-rochevilaine-billiers","address":{"thoroughfare":"à la Pointe de Pen Lan","postalcode":"56190","locality":"Billiers"},"name":"Domaine de Rochevilaine","chef":"Maxime Nouail","stars":1,"isOnLaF":false},{"urlMichelin":"https://restaurant.michelin.fr/2eb50c1n/la-villa-madie-cassis","address":{"thoroughfare":"av. du Revestel","postalcode":"13260","locality":"Cassis"},"name":"La Villa Madie","chef":"Dimitri Droisneau","stars":2,"isOnLaF":false},{"urlMichelin":"https://restaurant.michelin.fr/2bgynqb/chateau-de-sully-sully","address":{"thoroughfare":"D6","postalcode":"14400","locality":"Sully"},"name":"Château de Sully","chef":"NIcolas FAGES","stars":1,"isOnLaF":false},{"urlMichelin":"https://restaurant.michelin.fr/cns0apa3/1912-trouville-sur-mer","address":{"thoroughfare":"bd de la Cahotte","postalcode":"14360","locality":"Trouville-sur-Mer"},"name":"1912","chef":"Le chef Johan THYRIOT","stars":1,"isOnLaF":false},{"urlMichelin":"https://restaurant.michelin.fr/28yhuxy/la-grandvigne-martillac","address":{"thoroughfare":"chemin de Smith-Haut-Lafitte","postalcode":"33650","locality":"Martillac"},"name":"La Grand'Vigne","chef":"Nicolas Masse","stars":2,"isOnLaF":false},{"urlMichelin":"https://restaurant.michelin.fr/2a22p1u/maison-kieny-riedisheim","address":{"thoroughfare":"7 Rue du Général de Gaulle","postalcode":"68400","locality":"Riedisheim"},"name":"Maison Kieny","chef":"Jean-Marc KIENY","stars":1,"isOnLaF":false},{"urlMichelin":"https://restaurant.michelin.fr/28zo6i3/domaine-des-sequoias-ruy","address":{"thoroughfare":"54 Vie-de-Boussieu","postalcode":"38300","locality":"Ruy"},"name":"Domaine des Séquoias","chef":"Eric Jambon","stars":1,"isOnLaF":false},{"urlMichelin":"https://restaurant.michelin.fr/29nft26/auberge-de-lill-illhaeusern","address":{"thoroughfare":"2 rue de Collonges-au-Mont d'Or","postalcode":"68970","locality":"Illhaeusern"},"name":"Auberge de l'Ill","chef":"Marc Haeberlin","stars":3,"isOnLaF":false},{"urlMichelin":"https://restaurant.michelin.fr/2a7d9c1/le-meurice-alain-ducasse-paris-01","address":{"thoroughfare":"228 Rue de Rivoli","postalcode":"75001","locality":"Paris"},"name":"Le Meurice Alain Ducasse","chef":"Alain Ducasse et Jocelyn Herland","stars":2,"isOnLaF":false},{"urlMichelin":"https://restaurant.michelin.fr/2akhln2/lauberge-des-glazicks-plomodiern","address":{"thoroughfare":"7 rue de la Plage","postalcode":"29550","locality":"PLOMODIERN"},"name":"L'Auberge des Glazicks","chef":"Olivier Bellin","stars":2,"isOnLaF":false},{"urlMichelin":"https://restaurant.michelin.fr/3o59i9b/helen-paris-08","address":{"thoroughfare":"3 r.Berryer","postalcode":"75008","locality":"Paris"},"name":"Helen","chef":"Sébastien Carmona Porto","stars":1,"isOnLaF":false},{"urlMichelin":"https://restaurant.michelin.fr/2a8d13e/lambroisie-paris-04","address":{"thoroughfare":"9 Place des Vosges","postalcode":"75004","locality":"Paris"},"name":"L'Ambroisie","chef":"Bernard Pacaud","stars":3,"isOnLaF":false},{"urlMichelin":"https://restaurant.michelin.fr/xha7r0xl/girardin-colmar","address":{"thoroughfare":"19 Rue des Têtes","postalcode":"68000","locality":"Colmar"},"name":"Girardin","chef":"Éric Girardin","stars":1,"isOnLaF":false},{"urlMichelin":"https://restaurant.michelin.fr/2b3ktxc/la-table-des-merville-castanet-tolosan","address":{"thoroughfare":"3 place Richard","postalcode":"31320","locality":"Castanet-Tolosan"},"name":"La Table des Merville","chef":"Thierry Merville","stars":1,"isOnLaF":false},{"urlMichelin":"https://restaurant.michelin.fr/2fay1do/le-vivarais-vals-les-bains","address":{"thoroughfare":"5 avenue Expilly","postalcode":"07600","locality":"VALS-LES-BAINS"},"name":"Le Vivarais","chef":"POLLY STEPHANE","stars":1,"isOnLaF":false},{"urlMichelin":"https://restaurant.michelin.fr/2d0la2d/michel-chabran-la-grande-table-pont-de-lisere","address":{"thoroughfare":"29 Avenue du Quarante-Cinquième Parallèle","postalcode":"26600","locality":"Pont-de-l'Isère"},"name":"Michel Chabran - La Grande Table","chef":"Michel Chabran","stars":1,"isOnLaF":false},{"urlMichelin":"https://restaurant.michelin.fr/2d0hddd/pic-valence","address":{"thoroughfare":"285 avenue Victor Hugo","postalcode":"26000","locality":"Valence"},"name":"Pic","chef":"Anne-Sophie Pic","stars":3,"isOnLaF":false},{"urlMichelin":"https://restaurant.michelin.fr/33tyod0j/lodas-rouen","address":{"thoroughfare":"Passage Maurice Lenfant","postalcode":"76000","locality":"Rouen"},"name":"L'Odas","chef":"Olivier Da Silva","stars":1,"isOnLaF":false},{"urlMichelin":"https://restaurant.michelin.fr/29qf1y7/auberge-du-cheval-blanc-lembach","address":{"thoroughfare":"4 Route de Wissembourg","postalcode":"67510","locality":"Lembach"},"name":"Auberge du Cheval Blanc","chef":"Pascal Bastian","stars":2,"isOnLaF":false},{"urlMichelin":"https://restaurant.michelin.fr/29zgkr3/jerome-brochot-montceau-les-mines","address":{"thoroughfare":"Place Beaubernard","postalcode":"71300","locality":"Montceau-les-Mines"},"name":"Jérôme Brochot","chef":"Jérôme Brochot","stars":1,"isOnLaF":false},{"urlMichelin":"https://restaurant.michelin.fr/9sqrw32m/le-gabriel-paris-08","address":{"thoroughfare":"42 Avenue Gabriel","postalcode":"75008","locality":"Paris"},"name":"Le Gabriel","chef":"Jérôme Banctel","stars":2,"isOnLaF":false},{"urlMichelin":"https://restaurant.michelin.fr/2av98t5/le-st-placide-saint-malo","address":{"thoroughfare":"6 place du poncel","postalcode":"35400","locality":"Saint-Malo"},"name":"Le St-Placide","chef":"Luc Mobihan","stars":1,"isOnLaF":false},{"urlMichelin":"https://restaurant.michelin.fr/2clh5yg/le-parc-les-crayeres-reims","address":{"thoroughfare":"64 Boulevard Henry Vasnier","postalcode":"51100","locality":"Reims"},"name":"Le Parc Les Crayères","chef":"PHILIPPE MILLE","stars":2,"isOnLaF":false},{"urlMichelin":"https://restaurant.michelin.fr/2cedaza/domaine-des-hauts-de-loire-onzain","address":{"thoroughfare":"79 rue Gilbert Navard","postalcode":"41150","locality":"Onzain"},"name":"Domaine des Hauts de Loire","chef":"Rémy Giraud","stars":2,"isOnLaF":false},{"urlMichelin":"https://restaurant.michelin.fr/2c2ma30/la-cote-saint-jacques-joigny","address":{"thoroughfare":"14 faubourg de Paris","postalcode":"89300","locality":"Joigny"},"name":"La Côte Saint-Jacques","chef":"Jean-Michel Lorain","stars":2,"isOnLaF":false},{"urlMichelin":"https://restaurant.michelin.fr/2bqajf6/radio-chamalieres","address":{"thoroughfare":"43 av. P. et M.-Curie","postalcode":"63400","locality":"Chamalières"},"name":"Radio","chef":"Wilfrid CHAPLAIN ","stars":1,"isOnLaF":false},{"urlMichelin":"https://restaurant.michelin.fr/yjkdc8kf/larnsbourg-baerenthal","address":{"thoroughfare":"Untermuhlthal","postalcode":"57230","locality":"Baerenthal"},"name":"L'Arnsbourg","chef":"Fabien Mengus","stars":1,"isOnLaF":false},{"urlMichelin":"https://restaurant.michelin.fr/2boyz17/le-georges-chartres","address":{"thoroughfare":"22 pl. des Épars","postalcode":"28000","locality":"CHARTRES"},"name":"Le Georges","chef":"Nicolas Mendès","stars":1,"isOnLaF":false},{"urlMichelin":"https://restaurant.michelin.fr/2b7zqic/maison-decoret-vichy","address":{"thoroughfare":"15 rue du Parc","postalcode":"03200","locality":"Vichy"},"name":"Maison Decoret","chef":"Jacques Decoret","stars":1,"isOnLaF":false},{"urlMichelin":"https://restaurant.michelin.fr/1ore4aj2/la-scene-paris-08","address":{"thoroughfare":"33 Avenue George V","postalcode":"75008","locality":"Paris"},"name":"La Scène","chef":"Stéphanie Le Quellec","stars":1,"isOnLaF":false},{"urlMichelin":"https://restaurant.michelin.fr/29h5xkp/le-castellaras-fayence","address":{"thoroughfare":"461 chemin Peymeyan","postalcode":"83440","locality":"Fayence"},"name":"Le Castellaras","chef":"Quentin Joplet","stars":1,"isOnLaF":false},{"urlMichelin":"https://restaurant.michelin.fr/2afciv4/guy-savoy-paris-06","address":{"thoroughfare":"Monnaie de Paris11 Quai de Conti","postalcode":"75006","locality":"Paris"},"name":"Guy Savoy","chef":"Guy SAVOY","stars":3,"isOnLaF":false},{"urlMichelin":"https://restaurant.michelin.fr/vx40rloc/larcane-paris-18","address":{"thoroughfare":"39 Rue Lamarck","postalcode":"75018","locality":"Paris"},"name":"L'Arcane","chef":"Laurent Magnin","stars":1,"isOnLaF":false},{"urlMichelin":"https://restaurant.michelin.fr/2abav0l/lucas-carton-paris-08","address":{"thoroughfare":"9 pl. de la Madeleine","postalcode":"75008","locality":"Paris 08"},"name":"Lucas Carton","chef":"Julien Dumas","stars":1,"isOnLaF":false},{"urlMichelin":"https://restaurant.michelin.fr/2bc2prd/le-haut-allier-le-pont-dalleyras","address":{"thoroughfare":"LE PONT D ALLEYRAS","postalcode":"43580","locality":"Alleyras"},"name":"Le Haut-Allier","chef":"Philippe Brun","stars":1,"isOnLaF":false},{"urlMichelin":"https://restaurant.michelin.fr/2d3ergs/georges-blanc-vonnas","address":{"thoroughfare":"pl. du Marché","postalcode":"01540","locality":"Vonnas"},"name":"Georges Blanc","chef":"Georges BLANC","stars":3,"isOnLaF":false},{"urlMichelin":"https://restaurant.michelin.fr/aewyhv0/auberge-de-la-tour-marcoles","address":{"thoroughfare":"Place de la Fontaine","postalcode":"15220","locality":"MARCOLES"},"name":"Auberge de la Tour","chef":"Renaud Darmanin","stars":1,"isOnLaF":false},{"urlMichelin":"https://restaurant.michelin.fr/2abcqvg/lasserre-paris-08","address":{"thoroughfare":"17 Avenue F. -D. -Roosevelt","postalcode":"75008","locality":"Paris 08"},"name":"Lasserre","chef":"","stars":1,"isOnLaF":false},{"urlMichelin":"https://restaurant.michelin.fr/294rtmv/lamaryllis-saint-remy","address":{"thoroughfare":"chemin de Martorey","postalcode":"71100","locality":"Saint-Rémy"},"name":"L'Amaryllis","chef":"Cédric Burtin","stars":1,"isOnLaF":false},{"urlMichelin":"https://restaurant.michelin.fr/2b5e0ez/hostellerie-jerome-la-turbie","address":{"thoroughfare":"20 r. Comte de Cessole","postalcode":"06320","locality":"La Turbie"},"name":"Hostellerie Jérôme","chef":"Bruno Cirino","stars":2,"isOnLaF":false},{"urlMichelin":"https://restaurant.michelin.fr/29odhbw/la-passagere-juan-les-pins","address":{"thoroughfare":"33 boulevard E. -Baudoin","postalcode":"06160","locality":"Juan-les-Pins"},"name":"La Passagère","chef":"Aurélien VÉQUAUD","stars":1,"isOnLaF":false},{"urlMichelin":"https://restaurant.michelin.fr/2ank1c1/le-millenaire-reims","address":{"thoroughfare":"4 rue Bertin","postalcode":"51100","locality":"Reims"},"name":"Le Millénaire","chef":"Laurent et Thibault Laplaige","stars":1,"isOnLaF":false},{"urlMichelin":"https://restaurant.michelin.fr/2e4epe8/1131-la-bussiere-sur-ouche","address":{"thoroughfare":"D 33","postalcode":"21360","locality":"La Bussière-sur-Ouche"},"name":"1131","chef":"Royer Guillaume","stars":1,"isOnLaF":false},{"urlMichelin":"https://restaurant.michelin.fr/2a3ey4n/manoir-de-la-boulaie-haute-goulaine","address":{"thoroughfare":"33 rue Chapelle St-Martin","postalcode":"44115","locality":"HAUTE-GOULAINE"},"name":"Manoir de la Boulaie","chef":"Laurent Saudeau","stars":2,"isOnLaF":false},{"urlMichelin":"https://restaurant.michelin.fr/2fcezsf205/shang-palace-paris-16","address":{"thoroughfare":"10 Avenue d'Iéna","postalcode":"75016","locality":"Paris 16"},"name":"Shang Palace","chef":"Samuel Lee","stars":1,"isOnLaF":false},{"urlMichelin":"https://restaurant.michelin.fr/2f8857v/frederic-simonin-paris-17","address":{"thoroughfare":"25 rue Bayen","postalcode":"75017","locality":"Paris"},"name":"Frédéric Simonin","chef":"FREDERIC SIMONIN","stars":1,"isOnLaF":false},{"urlMichelin":"https://restaurant.michelin.fr/2cv1ygx/le-senechal-sauveterre-de-rouergue","address":{"thoroughfare":"Sauveterre de Rouergue","postalcode":"12800","locality":"Sauveterre-de-Rouergue"},"name":"Le Sénéchal","chef":"Michel Truchon","stars":1,"isOnLaF":false},{"urlMichelin":"https://restaurant.michelin.fr/29saut6/lamphitryon-lorient","address":{"thoroughfare":"127 r. du Col. -Müller","postalcode":"56100","locality":"Lorient"},"name":"L'Amphitryon","chef":"Olivier Beurné","stars":1,"isOnLaF":false},{"urlMichelin":"https://restaurant.michelin.fr/2jd4ivca/loiseau-des-ducs-dijon","address":{"thoroughfare":"3 Rue Vauban","postalcode":"21000","locality":"Dijon"},"name":"Loiseau des Ducs","chef":"Louis-Philippe Vigilant","stars":1,"isOnLaF":false},{"urlMichelin":"https://restaurant.michelin.fr/2exgwy4/flaveur-nice","address":{"thoroughfare":"25 Rue Gubernatis","postalcode":"06000","locality":"Nice"},"name":"Flaveur","chef":"Gaël et Mickaël Tourteaux","stars":2,"isOnLaF":false},{"urlMichelin":"https://restaurant.michelin.fr/2ca9g6u/le-domaine-du-colombier-malataverne","address":{"thoroughfare":"270 Chemin de Malombre","postalcode":"26780","locality":"Malataverne"},"name":"Le Domaine du Colombier","chef":"Cyril Fressac","stars":1,"isOnLaF":false},{"urlMichelin":"https://restaurant.michelin.fr/28x308q/les-terraillers-biot","address":{"thoroughfare":"11 Route Chemin-Neuf","postalcode":"06410","locality":"Biot"},"name":"Les Terraillers","chef":"Michaël Fulci","stars":1,"isOnLaF":false},{"urlMichelin":"https://restaurant.michelin.fr/2epi2a4/les-rosiers-biarritz","address":{"thoroughfare":"32 av. Beau Soleil","postalcode":"64200","locality":"Biarritz"},"name":"Les Rosiers","chef":"Andrée et Stéphane Rosier","stars":1,"isOnLaF":false},{"urlMichelin":"https://restaurant.michelin.fr/2enmc29/jean-luc-tartarin-le-havre","address":{"thoroughfare":"Square Saint-Roch","postalcode":"76600","locality":"Le Havre"},"name":"Jean-Luc Tartarin","chef":"Jean Luc Tartarin","stars":2,"isOnLaF":false},{"urlMichelin":"https://restaurant.michelin.fr/ui89zrwk/les-explorateurs-val-thorens","address":{"thoroughfare":"place du Slalom","postalcode":"73440","locality":"VAL THORENS"},"name":"Les Explorateurs","chef":"Josselin JEANBLANC","stars":1,"isOnLaF":false},{"urlMichelin":"https://restaurant.michelin.fr/u6v6rb42/le-jasmin-saint-sylvestre-sur-lot","address":{"thoroughfare":"Lieu-dit Lalande","postalcode":"47140","locality":"Saint-Sylvestre-sur-Lot"},"name":"Le Jasmin","chef":"Michel Vico","stars":1,"isOnLaF":false},{"urlMichelin":"https://restaurant.michelin.fr/2a95vol/mavrommatis-paris-05","address":{"thoroughfare":"42 rue Daubenton","postalcode":"75005","locality":"Paris 05"},"name":"Mavrommatis","chef":"Andréas MAVROMMATIS","stars":1,"isOnLaF":false},{"urlMichelin":"https://restaurant.michelin.fr/yhoi9vry/la-table-de-lespadon-paris-01","address":{"thoroughfare":"15 Place Vendôme","postalcode":"75001","locality":"Paris"},"name":"La Table de l'Espadon","chef":"Le Chef Nicolas Sale","stars":2,"isOnLaF":false},{"urlMichelin":"https://restaurant.michelin.fr/2a57m2j/alexandre-garons","address":{"thoroughfare":"2 rue Xavier Tronc","postalcode":"30128","locality":"Garons"},"name":"Alexandre","chef":"Michel Kayser","stars":2,"isOnLaF":false},{"urlMichelin":"https://restaurant.michelin.fr/ygx47dyb/la-scene-theleme-paris-17","address":{"thoroughfare":"18 Rue Troyon","postalcode":"75017","locality":"PARIS"},"name":"La Scène Thélème","chef":"Julien Roucheteau","stars":1,"isOnLaF":false},{"urlMichelin":"https://restaurant.michelin.fr/2c4rgah/chapelle-saint-martin-nieul","address":{"thoroughfare":"33, Saint Martin du Fault","postalcode":"87510","locality":"Nieul"},"name":"Chapelle Saint-Martin","chef":"Gilles Dudognon","stars":1,"isOnLaF":false},{"urlMichelin":"https://restaurant.michelin.fr/3xmi14j/origine-rouen","address":{"thoroughfare":"26 Rampe Cauchoise","postalcode":"76000","locality":"Rouen"},"name":"Origine","chef":"Benjamin Lechevallier","stars":1,"isOnLaF":false},{"urlMichelin":"https://restaurant.michelin.fr/292bk5u/la-palme-dor-cannes","address":{"thoroughfare":"73 Boulevard de la Croisette","postalcode":"06400","locality":"Cannes"},"name":"La Palme d'Or","chef":"Christian Sinicropi","stars":2,"isOnLaF":false},{"urlMichelin":"https://restaurant.michelin.fr/2dntkxh/regis-et-jacques-marcon-saint-bonnet-le-froid","address":{"thoroughfare":"Larsiallas","postalcode":"43290","locality":"SAINT-BONNET-LE-FROID"},"name":"Régis et Jacques Marcon","chef":"Régis et  Jacques Marcon","stars":3,"isOnLaF":false},{"urlMichelin":"https://restaurant.michelin.fr/2cm53gy/le-bois-sans-feuilles-ouches","address":{"thoroughfare":"728 Route de Villerest","postalcode":"42155","locality":"Ouches"},"name":"Le Bois sans Feuilles","chef":"Michel et César Troisgros","stars":3,"isOnLaF":false},{"urlMichelin":"https://restaurant.michelin.fr/2dqiunf/pur-jean-francois-rouquette-paris-02","address":{"thoroughfare":"5 r. de la Paix","postalcode":"75002","locality":"Paris 02"},"name":"Pur' - Jean-François Rouquette","chef":"ROUQUETTE Jean-François","stars":1,"isOnLaF":false},{"urlMichelin":"https://restaurant.michelin.fr/29ryt77/auberge-de-la-diligence-loire","address":{"thoroughfare":"4 r. de la Libération","postalcode":"49440","locality":"Loiré"},"name":"Auberge de la Diligence","chef":"Michel Cudraz","stars":1,"isOnLaF":false},{"urlMichelin":"https://restaurant.michelin.fr/2bufvvg87/le-ptit-polyte-les-deux-alpes","address":{"thoroughfare":"2 Rue de la Chapelle","postalcode":"38860","locality":"Les Deux Alpes"},"name":"Le P'tit Polyte","chef":"Mathew Hegarty","stars":1,"isOnLaF":false},{"urlMichelin":"https://restaurant.michelin.fr/9fkib5i9/neige-dete-paris-15","address":{"thoroughfare":"12 Rue de l'Amiral Roussin","postalcode":"75015","locality":"Paris 15"},"name":"Neige d'Été","chef":"Hideki Nishi","stars":1,"isOnLaF":false},{"urlMichelin":"https://restaurant.michelin.fr/2b3jb0y/o-saveurs-rouffiac-tolosan","address":{"thoroughfare":"8 place Ormeaux au village","postalcode":"31180","locality":"ROUFFIAC-TOLOSAN"},"name":"Ô Saveurs","chef":"David Biasibetti","stars":1,"isOnLaF":false},{"urlMichelin":"https://restaurant.michelin.fr/2atvlv0/la-mare-aux-oiseaux-saint-joachim","address":{"thoroughfare":"223 RUE DU CHEF DE L'ILE Fedrun","postalcode":"44720","locality":"Saint-Joachim"},"name":"La Mare aux Oiseaux","chef":"Eric Guérin","stars":1,"isOnLaF":false},{"urlMichelin":"https://restaurant.michelin.fr/8xdk7lc4/le-roc-alto-saint-veran","address":{"thoroughfare":"Quartier La Ville","postalcode":"05350","locality":"SAINT-VERAN"},"name":"Le Roc Alto","chef":"Alexandre Lechêne","stars":1,"isOnLaF":false},{"urlMichelin":"https://restaurant.michelin.fr/2cj2itx/la-table-de-la-butte-plouider","address":{"thoroughfare":"10 rue de la Mer","postalcode":"29260","locality":"PLOUIDER"},"name":"La Table de La Butte","chef":"Nicolas Conraux","stars":1,"isOnLaF":false},{"urlMichelin":"https://restaurant.michelin.fr/2a1fgdk/le-candille-mougins","address":{"thoroughfare":"bd C. Rebuffel","postalcode":"06250","locality":"Mougins"},"name":"Le Candille","chef":"Xavier Burelle","stars":1,"isOnLaF":false},{"urlMichelin":"https://restaurant.michelin.fr/2c30770n/64deg-le-restaurant-kaysersberg-vignoble","address":{"thoroughfare":"9-13 Rue du Général de Gaulle","postalcode":"68240","locality":"Kaysersberg"},"name":"64° Le Restaurant","chef":"Olivier Nasti","stars":2,"isOnLaF":false},{"urlMichelin":"https://restaurant.michelin.fr/2a93ort/helene-darroze-paris-06","address":{"thoroughfare":"4 rue d'Assas","postalcode":"75006","locality":"Paris 06"},"name":"Hélène Darroze","chef":"Hélène Darroze","stars":1,"isOnLaF":false},{"urlMichelin":"https://restaurant.michelin.fr/2fcezsf/labeille-paris-16","address":{"thoroughfare":"10 Avenue d'Iéna","postalcode":"75016","locality":"Paris 16"},"name":"L'Abeille","chef":"Christophe Moret","stars":2,"isOnLaF":false},{"urlMichelin":"https://restaurant.michelin.fr/t3tqba7q/latelier-de-gaztelur-arcangues","address":{"thoroughfare":"Chemin de Gastelhur","postalcode":"64200","locality":"Arcangues"},"name":"L'Atelier de Gaztelur","chef":"Alexandre Bousquet","stars":1,"isOnLaF":false},{"urlMichelin":"https://restaurant.michelin.fr/29ktfvn/la-bastide-st-antoine-grasse","address":{"thoroughfare":"48 av. Henri-Dunant","postalcode":"06130","locality":"Grasse"},"name":"La Bastide St-Antoine","chef":"Jacques Chibois","stars":1,"isOnLaF":false},{"urlMichelin":"https://restaurant.michelin.fr/295xqfd/edem-chassagne-montrachet","address":{"thoroughfare":"4 imp. Chenevottes","postalcode":"21190","locality":"Chassagne-Montrachet"},"name":"Ed.Em","chef":"Edouard Mignot","stars":1,"isOnLaF":false},{"urlMichelin":"https://restaurant.michelin.fr/28qr6q2/la-chassagnette-arles","address":{"thoroughfare":"route du Sambuc","postalcode":"13200","locality":"ARLES"},"name":"La Chassagnette","chef":"Armand Arnal","stars":1,"isOnLaF":false},{"urlMichelin":"https://restaurant.michelin.fr/2euo0rk/antoine-paris-16","address":{"thoroughfare":"10 av. de New-York","postalcode":"75116","locality":"Paris 16"},"name":"Antoine","chef":"Thibault Sombardier","stars":1,"isOnLaF":false},{"urlMichelin":"https://restaurant.michelin.fr/29w1hx9/lepuisette-marseille-07","address":{"thoroughfare":"158 Vallon-des-Auffes","postalcode":"13007","locality":"Marseille"},"name":"L'Épuisette","chef":"Guillaume SOURRIEU","stars":1,"isOnLaF":false},{"urlMichelin":"https://restaurant.michelin.fr/29wzk9t/flocons-de-sel-megeve","address":{"thoroughfare":"1775 rte du Leutaz","postalcode":"74120","locality":"Megève"},"name":"Flocons de Sel","chef":"Emmanuel Renaut","stars":3,"isOnLaF":false},{"urlMichelin":"https://restaurant.michelin.fr/2ak8isu/auberge-la-bonne-idee-saint-jean-aux-bois","address":{"thoroughfare":"3 rue des Meuniers","postalcode":"60350","locality":"SAINT-JEAN-AUX-BOIS"},"name":"Auberge à la Bonne Idée","chef":"Yves Giustinani","stars":1,"isOnLaF":false},{"urlMichelin":"https://restaurant.michelin.fr/2afdah0/maison-rostang-paris-17","address":{"thoroughfare":"20 rue Rennequin","postalcode":"75017","locality":"Paris"},"name":"Maison Rostang","chef":"Nicolas Beaumann","stars":2,"isOnLaF":false},{"urlMichelin":"https://restaurant.michelin.fr/2adr3mu/cobea-paris-14","address":{"thoroughfare":"11 r. Raymond Losserand","postalcode":"75014","locality":"Paris 14"},"name":"Cobéa","chef":"Philippe Bélissent","stars":1,"isOnLaF":false},{"urlMichelin":"https://restaurant.michelin.fr/2fa4jx5/le-carre-dalethius-charmes-sur-rhone","address":{"thoroughfare":"4 r. Paul-Bertois","postalcode":"07800","locality":"Charmes-sur-Rhône"},"name":"Le Carré d'Alethius","chef":"Olivier Samin","stars":1,"isOnLaF":false},{"urlMichelin":"https://restaurant.michelin.fr/29qv5p8/auberge-frankenbourg-la-vancelle","address":{"thoroughfare":"13 r. Gén. de Gaulle","postalcode":"67730","locality":"La Vancelle"},"name":"Auberge Frankenbourg","chef":"Sébastien Buecher","stars":1,"isOnLaF":false},{"urlMichelin":"https://restaurant.michelin.fr/3f9eksg5n/alcyone-marseille-02","address":{"thoroughfare":"1 Place Daviel","postalcode":"13002","locality":"MARSEILLE"},"name":"Alcyone","chef":"Lionel Levy","stars":1,"isOnLaF":false},{"urlMichelin":"https://restaurant.michelin.fr/29t2ib7/les-terrasses-de-lyon-lyon-05","address":{"thoroughfare":"25, montée Saint BArthelémy","postalcode":"69005","locality":"Lyon 05"},"name":"Les Terrasses de Lyon","chef":"David Delsart","stars":1,"isOnLaF":false},{"urlMichelin":"https://restaurant.michelin.fr/2a2adlj/la-nouvelle-auberge-wihr-au-val","address":{"thoroughfare":"9 route Nationale","postalcode":"68230","locality":"Wihr-au-Val"},"name":"La Nouvelle Auberge","chef":"Bernard Leray","stars":1,"isOnLaF":false},{"urlMichelin":"https://restaurant.michelin.fr/2c5ztru/chateau-dadomenil-luneville","address":{"thoroughfare":"","postalcode":"54300","locality":"Lunéville"},"name":"Château d'Adoménil","chef":"Cyril Leclerc","stars":1,"isOnLaF":false},{"urlMichelin":"https://restaurant.michelin.fr/2cp6y7n/hostellerie-de-plaisance-saint-emilion","address":{"thoroughfare":"5 place du Clocher","postalcode":"33330","locality":"Saint-Emilion"},"name":"Hostellerie de Plaisance","chef":"Ronan Kervarrec","stars":2,"isOnLaF":false},{"urlMichelin":"https://restaurant.michelin.fr/28x69qn/le-strasbourg-bitche","address":{"thoroughfare":"24 r. du Col. -Teyssier","postalcode":"57230","locality":"Bitche"},"name":"Le Strasbourg","chef":"Lutz Janisch","stars":1,"isOnLaF":false},{"urlMichelin":"https://restaurant.michelin.fr/2dtzs6c/lescarbille-meudon","address":{"thoroughfare":"8 Rue de Vélizy","postalcode":"92190","locality":"Meudon"},"name":"L'Escarbille","chef":"Régis Douysset","stars":1,"isOnLaF":false},{"urlMichelin":"https://restaurant.michelin.fr/t4cp5kaa/alliance-paris-05","address":{"thoroughfare":"5 Rue de Poissy","postalcode":"75005","locality":"Paris"},"name":"Alliance","chef":"Toshitaka Omiya","stars":1,"isOnLaF":false},{"urlMichelin":"https://restaurant.michelin.fr/2brjniu/herve-busset-conques-en-rouergue","address":{"thoroughfare":"D901","postalcode":"12320","locality":"Conques"},"name":"Hervé Busset","chef":"HERVE BUSSET","stars":1,"isOnLaF":false},{"urlMichelin":"https://restaurant.michelin.fr/2ct3bc6/le-belrose-bertaud","address":{"thoroughfare":"Boulevard des Crêtes","postalcode":"83580","locality":"Gassin"},"name":"Le Belrose","chef":"Pietro Volonté","stars":1,"isOnLaF":false},{"urlMichelin":"https://restaurant.michelin.fr/29g9pvw/les-pres-deugenie-michel-guerard-eugenie-les-bains","address":{"thoroughfare":"pl. de l'Impératrice","postalcode":"40320","locality":"Eugénie-les-Bains"},"name":"Les Prés d'Eugénie - Michel Guérard","chef":"Michel Guérard","stars":3,"isOnLaF":false},{"urlMichelin":"https://restaurant.michelin.fr/2ab8pfp/epicure-paris-08","address":{"thoroughfare":"112 r. Fg St-Honoré","postalcode":"75008","locality":"Paris 08"},"name":"Épicure","chef":"Eric Frechon","stars":3,"isOnLaF":false},{"urlMichelin":"https://restaurant.michelin.fr/2a7bw8d/les-jardins-de-lespadon-paris-01","address":{"thoroughfare":"15 place Vendôme","postalcode":"75001","locality":"Paris"},"name":"Les Jardins de l'Espadon","chef":"Nicolas Sale","stars":1,"isOnLaF":false},{"urlMichelin":"https://restaurant.michelin.fr/2bnef6m/maison-lameloise-chagny","address":{"thoroughfare":"36 pl. d'Armes","postalcode":"71150","locality":"Chagny"},"name":"Maison Lameloise","chef":"Eric Pras","stars":3,"isOnLaF":false},{"urlMichelin":"https://restaurant.michelin.fr/29nxch5/la-bergerie-sarpoil","address":{"thoroughfare":"D999","postalcode":"63490","locality":"Sarpoil"},"name":"La Bergerie","chef":"Cyrille Zen","stars":1,"isOnLaF":false},{"urlMichelin":"https://restaurant.michelin.fr/2avrk5m/le-gindreau-saint-medard","address":{"thoroughfare":"D5","postalcode":"46150","locality":"Saint-Médard"},"name":"Le Gindreau","chef":"Pascal Bardet","stars":2,"isOnLaF":false},{"urlMichelin":"https://restaurant.michelin.fr/2dgxug2/ar-men-du-nevez","address":{"thoroughfare":"47 rue des îles","postalcode":"29920","locality":"Névez"},"name":"Ar Men Du","chef":"Philippe Emanuelli","stars":1,"isOnLaF":false},{"urlMichelin":"https://restaurant.michelin.fr/2851286/lorangerie-paris-08","address":{"thoroughfare":"31 Avenue George-V","postalcode":"75008","locality":"Paris"},"name":"L'Orangerie","chef":"David Bizet ","stars":1,"isOnLaF":false},{"urlMichelin":"https://restaurant.michelin.fr/3044086/armani-ristorante-paris-06","address":{"thoroughfare":"149 Boulevard Saint-Germain","postalcode":"75006","locality":"Paris"},"name":"Armani Ristorante","chef":"Massimo Tringali","stars":1,"isOnLaF":false},{"urlMichelin":"https://restaurant.michelin.fr/28zmco9/atmospheres-le-bourget-du-lac","address":{"thoroughfare":"618 Route des Tournelles","postalcode":"73370","locality":"Le Bourget-du-Lac"},"name":"Atmosphères","chef":"Alain Périllat-Mercerot","stars":1,"isOnLaF":false},{"urlMichelin":"https://restaurant.michelin.fr/2ajskia/la-galinette-perpignan","address":{"thoroughfare":"23 r. Jean Payra","postalcode":"66000","locality":"Perpignan"},"name":"La Galinette","chef":"Christophe Comes","stars":1,"isOnLaF":false},{"urlMichelin":"https://restaurant.michelin.fr/2dnrb62/thierry-drapeau-saint-sulpice-le-verdon","address":{"thoroughfare":"La Chabotterie","postalcode":"85260","locality":"Saint-Sulpice-le-Verdon"},"name":"Thierry Drapeau","chef":"THIERRY DRAPEAU","stars":2,"isOnLaF":false},{"urlMichelin":"https://restaurant.michelin.fr/2dckc0s/auberge-de-clochemerle-vaux-en-beaujolais","address":{"thoroughfare":"Rue Gabriel-Chevallier","postalcode":"69460","locality":"VAUX-EN-BEAUJOLAIS"},"name":"Auberge de Clochemerle","chef":"Romain Barthe","stars":1,"isOnLaF":false},{"urlMichelin":"https://restaurant.michelin.fr/2b3pf5k/lamphitryon-colomiers","address":{"thoroughfare":"chemin de Gramont","postalcode":"31770","locality":"Colomiers"},"name":"L'Amphitryon","chef":"Yannick Delpech","stars":1,"isOnLaF":false},{"urlMichelin":"https://restaurant.michelin.fr/omm63qr/le-jardin-des-plumes-giverny","address":{"thoroughfare":"1 Rue du Milieu","postalcode":"27620","locality":"Giverny"},"name":"Le Jardin des Plumes","chef":"Albert Riera pour Eric Guerin","stars":1,"isOnLaF":false},{"urlMichelin":"https://restaurant.michelin.fr/3m0pjn8/assa-blois","address":{"thoroughfare":"189 Quai Ulysse Besnard","postalcode":"41000","locality":"Blois"},"name":"Assa","chef":"Fumiko et Anthony Maubert","stars":1,"isOnLaF":false},{"urlMichelin":"https://restaurant.michelin.fr/2e06dui/latelier-de-jean-luc-rabanel-arles","address":{"thoroughfare":"7 r. des Carmes","postalcode":"13200","locality":"Arles"},"name":"L'Atelier de Jean-Luc Rabanel","chef":"Jean-Luc Rabanel","stars":2,"isOnLaF":false},{"urlMichelin":"https://restaurant.michelin.fr/h2j2em3/limpertinent-biarritz","address":{"thoroughfare":"5, rue d'Alsace","postalcode":"64200","locality":"Biarritz"},"name":"L'Impertinent","chef":"Fabian Feldmann","stars":1,"isOnLaF":false},{"urlMichelin":"https://restaurant.michelin.fr/2dczscn/le-farcon-la-tania","address":{"thoroughfare":"immeuble la Kalinka","postalcode":"73125","locality":"La Tania"},"name":"Le Farçon","chef":"Julien Machet","stars":1,"isOnLaF":false},{"urlMichelin":"https://restaurant.michelin.fr/2ejmich/le-figuier-de-st-esprit-antibes","address":{"thoroughfare":"7, Promenade Amiral de Grasse","postalcode":"06600","locality":"Antibes"},"name":"Le Figuier de St-Esprit","chef":"Christian Morisset","stars":1,"isOnLaF":false},{"urlMichelin":"https://restaurant.michelin.fr/2dxwn73/la-maison-da-cote-montlivault","address":{"thoroughfare":"17 rue de Chambord","postalcode":"41350","locality":"Montlivault"},"name":"La Maison d'à Côté","chef":"Christophe Hay","stars":1,"isOnLaF":false},{"urlMichelin":"https://restaurant.michelin.fr/2az3rad/kasbur-monswiller","address":{"thoroughfare":"8 Rue de Dettwiller","postalcode":"67700","locality":"Monswiller"},"name":"Kasbür","chef":"Yves Kieffer","stars":1,"isOnLaF":false},{"urlMichelin":"https://restaurant.michelin.fr/2dcdnms/il-cortile-mulhouse","address":{"thoroughfare":"11 r. des Franciscains","postalcode":"68100","locality":"Mulhouse"},"name":"Il Cortile","chef":"Stefano D'Onghia","stars":1,"isOnLaF":false},{"urlMichelin":"https://restaurant.michelin.fr/2ao631n/le-saison-saint-gregoire","address":{"thoroughfare":"1 imp. du Vieux-Bourg","postalcode":"35760","locality":"Saint-Grégoire"},"name":"Le Saison","chef":"David Etcheverry","stars":1,"isOnLaF":false},{"urlMichelin":"https://restaurant.michelin.fr/2cmxk0v/le-domaine-de-la-corniche-rolleboise","address":{"thoroughfare":"5 rte de la Corniche","postalcode":"78270","locality":"Rolleboise"},"name":"Le Domaine de la Corniche","chef":"Julien Razemon","stars":1,"isOnLaF":false},{"urlMichelin":"https://restaurant.michelin.fr/28zi7ln/lamartine-le-bourget-du-lac","address":{"thoroughfare":"Route du Tunnel du Chat","postalcode":"73370","locality":"Le Bourget du Lac"},"name":"Lamartine","chef":"Pierre Marin","stars":1,"isOnLaF":false},{"urlMichelin":"https://restaurant.michelin.fr/cne1oxue/jerome-nutile-le-mas-de-boudan-nimes","address":{"thoroughfare":"351 Chemin du Mas de Boudan","postalcode":"30000","locality":"Nîmes"},"name":"Jérôme Nutile - Le Mas de Boudan","chef":"Jérôme Nutile","stars":1,"isOnLaF":false},{"urlMichelin":"https://restaurant.michelin.fr/2dy7rqn/le-petit-hotel-du-grand-large-portivy","address":{"thoroughfare":"11 quai St-Ivy","postalcode":"56510","locality":"Portivy"},"name":"Le Petit Hôtel du Grand Large","chef":"Hervé Bourdon","stars":1,"isOnLaF":false},{"urlMichelin":"https://restaurant.michelin.fr/2ajy6gr/la-promenade-le-petit-pressigny","address":{"thoroughfare":"11 rue du Savoureulx","postalcode":"37350","locality":"Le Petit-Pressigny"},"name":"La Promenade","chef":"Fabrice et Jacky Dallais","stars":1,"isOnLaF":false},{"urlMichelin":"https://restaurant.michelin.fr/2al9714/le-raisin-pont-de-vaux","address":{"thoroughfare":"2 pl. M. -Poisat","postalcode":"01190","locality":"Pont-de-Vaux"},"name":"Le Raisin","chef":"Frédéric Michel","stars":1,"isOnLaF":false},{"urlMichelin":"https://restaurant.michelin.fr/28q4ohd/le-patio-arcachon","address":{"thoroughfare":"10 bd de la Plage","postalcode":"33120","locality":"Arcachon"},"name":"Le Patio","chef":"Thierry Renou","stars":1,"isOnLaF":false},{"urlMichelin":"https://restaurant.michelin.fr/29d8fg4/le-colombier-offranville","address":{"thoroughfare":"r. Loucheur","postalcode":"76550","locality":"Offranville"},"name":"Le Colombier","chef":"Laurent Kleczewski","stars":1,"isOnLaF":false},{"urlMichelin":"https://restaurant.michelin.fr/3x81832/nakatani-paris-07","address":{"thoroughfare":"27 Rue Pierre Leroux","postalcode":"75007","locality":"PARIS"},"name":"Nakatani","chef":"Shinsuke Nakatani","stars":1,"isOnLaF":false},{"urlMichelin":"https://restaurant.michelin.fr/2bfnmbt/le-manoir-du-lys-bagnoles-de-lorne-normandie","address":{"thoroughfare":"D235","postalcode":"61140","locality":"Bagnoles-de-l'Orne"},"name":"Le Manoir du Lys","chef":"Franck Quinton","stars":1,"isOnLaF":false},{"urlMichelin":"https://restaurant.michelin.fr/2b00ufd/auberge-au-boeuf-sessenheim","address":{"thoroughfare":"Rue de l'Eglise","postalcode":"67770","locality":"Sessenheim"},"name":"Auberge au Boeuf","chef":"Yannick Germain","stars":1,"isOnLaF":false},{"urlMichelin":"https://restaurant.michelin.fr/2blc3qr/chateau-de-mercues-mercues","address":{"thoroughfare":"Route du Château","postalcode":"46090","locality":"Mercuès"},"name":"Château de Mercuès","chef":"Julien Poisot","stars":1,"isOnLaF":false},{"urlMichelin":"https://restaurant.michelin.fr/2cqc8op/le-cap-saint-jean-cap-ferrat","address":{"thoroughfare":"71 Boulevard du Général-de-Gaulle","postalcode":"06230","locality":"SAINT-JEAN-CAP-FERRAT"},"name":"Le Cap","chef":"Yoric Tièche","stars":1,"isOnLaF":false},{"urlMichelin":"https://restaurant.michelin.fr/29hyxpk/auberge-de-la-mine-gue-plat","address":{"thoroughfare":"le Gué-Plat","postalcode":"61450","locality":"La Ferrière-aux-Étangs"},"name":"Auberge de la Mine","chef":"Hubert Nobis","stars":1,"isOnLaF":false},{"urlMichelin":"https://restaurant.michelin.fr/2c2u7lh/xavier-mathieu-joucas","address":{"thoroughfare":"Route de Murs","postalcode":"84220","locality":"Joucas"},"name":"Xavier Mathieu","chef":"Mr Xavier Mathieu","stars":1,"isOnLaF":false},{"urlMichelin":"https://restaurant.michelin.fr/3m56yu9/aux-anges-roanne","address":{"thoroughfare":"6 Place Georges Clemenceau","postalcode":"42300","locality":"Roanne"},"name":"Aux Anges","chef":"Marco Viganò","stars":1,"isOnLaF":false},{"urlMichelin":"https://restaurant.michelin.fr/2css2bw/lolivier-saint-tropez","address":{"thoroughfare":"25 Route des Carles","postalcode":"83990","locality":"Saint-Tropez"},"name":"L'Olivier","chef":"COLINET PHILIPPE","stars":1,"isOnLaF":false},{"urlMichelin":"https://restaurant.michelin.fr/2epcrm9/le-pressoir-dargent-gordon-ramsay-bordeaux","address":{"thoroughfare":"2,5 Place de la Comédie","postalcode":"33000","locality":"Bordeaux"},"name":"Le Pressoir d'Argent - Gordon Ramsay","chef":"Gordon Ramsay et le Chef Exécutif Gilad Peled","stars":2,"isOnLaF":false},{"urlMichelin":"https://restaurant.michelin.fr/9tmwymw/kei-paris-01","address":{"thoroughfare":"5 rue du Coq-Héron","postalcode":"75001","locality":"Paris 01"},"name":"Kei","chef":"Kei Kobayashi","stars":2,"isOnLaF":false},{"urlMichelin":"https://restaurant.michelin.fr/2a5ztne/la-fourchette-des-ducs-obernai","address":{"thoroughfare":"6 r. de la Gare","postalcode":"67210","locality":"Obernai"},"name":"La Fourchette des Ducs","chef":"Nicolas Stamm","stars":2,"isOnLaF":false},{"urlMichelin":"https://restaurant.michelin.fr/a7u4fcer/la-grande-maison-de-bernard-magrez-bordeaux","address":{"thoroughfare":"10 Rue Labottière","postalcode":"33000","locality":"Bordeaux"},"name":"La Grande Maison de Bernard Magrez","chef":"Pierre Gagnaire","stars":2,"isOnLaF":false},{"urlMichelin":"https://restaurant.michelin.fr/9tangja/la-voile-ramatuelle","address":{"thoroughfare":"chemin de la Quessine","postalcode":"83350","locality":"Ramatuelle"},"name":"La Voile","chef":"Eric Canino","stars":1,"isOnLaF":false},{"urlMichelin":"https://restaurant.michelin.fr/2b5lehi/les-terrasses-duriage-uriage-les-bains","address":{"thoroughfare":"pl. Déesse-Hygie","postalcode":"38410","locality":"Uriage-les-Bains"},"name":"Les Terrasses d'Uriage","chef":"Christophe Aribert","stars":2,"isOnLaF":false},{"urlMichelin":"https://restaurant.michelin.fr/2ab76wf/alain-ducasse-au-plaza-athenee-paris-08","address":{"thoroughfare":"25 avenue Montaigne","postalcode":"75008","locality":"Paris"},"name":"Alain Ducasse au Plaza Athénée","chef":"","stars":3,"isOnLaF":false},{"urlMichelin":"https://restaurant.michelin.fr/1fchzdq5/takao-takano-lyon-06","address":{"thoroughfare":"33 Rue Malesherbes","postalcode":"69006","locality":"Lyon 06"},"name":"Takao Takano","chef":"Takao Takano","stars":2,"isOnLaF":false},{"urlMichelin":"https://restaurant.michelin.fr/2edzchf/le-mascaret-blainville-sur-mer","address":{"thoroughfare":"1 r. de Bas","postalcode":"50560","locality":"Blainville-sur-Mer"},"name":"Le Mascaret","chef":"Philippe Hardy","stars":1,"isOnLaF":false},{"urlMichelin":"https://restaurant.michelin.fr/i1i7i9b/la-table-de-la-bergerie-le-champ-sur-layon","address":{"thoroughfare":"La Bergerie","postalcode":"49380","locality":"Champ-sur-Layon"},"name":"La Table de la Bergerie","chef":"David Guitton","stars":1,"isOnLaF":false},{"urlMichelin":"https://restaurant.michelin.fr/3fa7ojh3/lo-des-vignes-fuisse","address":{"thoroughfare":"r. du Bourg","postalcode":"71960","locality":"Fuissé"},"name":"L'O des Vignes","chef":"Sébastien Chambru","stars":1,"isOnLaF":false},{"urlMichelin":"https://restaurant.michelin.fr/3n5gkk2/la-gourmandiere-la-table-dolivier-vannes","address":{"thoroughfare":"D126","postalcode":"56000","locality":"Vannes"},"name":"La Gourmandière - La Table d'Olivier","chef":"Olivier Samson","stars":1,"isOnLaF":false},{"urlMichelin":"https://restaurant.michelin.fr/2dnoa2o/auberge-de-labbaye-ambronay","address":{"thoroughfare":"47 place des anciens Combattants","postalcode":"01500","locality":"Ambronay"},"name":"Auberge de l'Abbaye","chef":"Ivan Lavaux","stars":1,"isOnLaF":false},{"urlMichelin":"https://restaurant.michelin.fr/29fq33a/les-ducs-de-lorraine-epinal","address":{"thoroughfare":"5 av. Provence","postalcode":"88000","locality":"Épinal"},"name":"Les Ducs de Lorraine","chef":"Stéphane Ringer et Rémi Gornet","stars":1,"isOnLaF":false},{"urlMichelin":"https://restaurant.michelin.fr/1ss80t3t/la-table-duzes-uzes","address":{"thoroughfare":"18 rue du Docteur Blanchard","postalcode":"30700","locality":"Uzès"},"name":"La Table d'Uzès","chef":"","stars":1,"isOnLaF":false},{"urlMichelin":"https://restaurant.michelin.fr/4gq15sff/am-par-alexandre-mazzia-marseille-08","address":{"thoroughfare":"9 rue François Rocca","postalcode":"13008","locality":"Marseille"},"name":"AM par Alexandre Mazzia","chef":"Alexandre Mazzia","stars":1,"isOnLaF":false},{"urlMichelin":"https://restaurant.michelin.fr/2appio4/les-cedres-granges-les-beaumont","address":{"thoroughfare":"25 Rue Henri MACHON","postalcode":"26600","locality":"Granges-les-Beaumont"},"name":"Les Cèdres","chef":"Jacques Bertrand","stars":2,"isOnLaF":false},{"urlMichelin":"https://restaurant.michelin.fr/2e0bvx8/les-clefs-dargent-mont-de-marsan","address":{"thoroughfare":"333 Avenue des Martyrs de la Résistance","postalcode":"40000","locality":"Mont-de-Marsan"},"name":"Les Clefs d'Argent","chef":"Christophe Dupouy","stars":1,"isOnLaF":false},{"urlMichelin":"https://restaurant.michelin.fr/2cn0867/grand-hotel-du-lion-dor-romorantin-lanthenay","address":{"thoroughfare":"69 r. Clemenceau","postalcode":"41200","locality":"Romorantin-Lanthenay"},"name":"Grand Hôtel du Lion d'Or","chef":"Didier Clément","stars":1,"isOnLaF":false},{"urlMichelin":"https://restaurant.michelin.fr/nwxo8h9/dominique-bucaille-manosque","address":{"thoroughfare":"715 av. des Savels","postalcode":"04100","locality":"Manosque"},"name":"Dominique Bucaille","chef":"Bucaille Dominique","stars":1,"isOnLaF":false},{"urlMichelin":"https://restaurant.michelin.fr/2ab2thp/le-cinq-paris-08","address":{"thoroughfare":"31 av. George V","postalcode":"75008","locality":"Paris 08"},"name":"Le Cinq","chef":"Christian Le Squer","stars":3,"isOnLaF":false},{"urlMichelin":"https://restaurant.michelin.fr/2avet55/rene-et-maxime-meilleur-saint-martin-de-belleville","address":{"thoroughfare":"Saint Marcel","postalcode":"73440","locality":"Saint-Martin-de-Belleville"},"name":"René et Maxime Meilleur","chef":"René et Maxime Meilleur","stars":3,"isOnLaF":false},{"urlMichelin":"https://restaurant.michelin.fr/2b05ga9/auberge-st-laurent-sierentz","address":{"thoroughfare":"1 rue Fontaine","postalcode":"68510","locality":"Sierentz"},"name":"Auberge St-Laurent","chef":"Laurent Arbeit","stars":1,"isOnLaF":false},{"urlMichelin":"https://restaurant.michelin.fr/29fhuzu/les-berceaux-epernay","address":{"thoroughfare":"13 rue des Berceaux","postalcode":"51200","locality":"Épernay"},"name":"Les Berceaux","chef":"Patrick Michelon","stars":1,"isOnLaF":false},{"urlMichelin":"https://restaurant.michelin.fr/3kw7mh1/logis-de-la-cadene-saint-emilion","address":{"thoroughfare":"Place du Marche au Bois","postalcode":"33330","locality":"Saint Emilion"},"name":"Logis de la Cadène","chef":"Alexandre Baumard","stars":1,"isOnLaF":false},{"urlMichelin":"https://restaurant.michelin.fr/2ek9zhh/apicius-clermont-ferrand","address":{"thoroughfare":"Marché Saint Pierre 1 étage","postalcode":"63000","locality":"Clermont-Ferrand"},"name":"Apicius","chef":"Arkadiusz Zuchmanski","stars":1,"isOnLaF":false},{"urlMichelin":"https://restaurant.michelin.fr/3503291/lecrin-paris-08","address":{"thoroughfare":"10 place de la Concorde","postalcode":"75008","locality":"Paris"},"name":"L'Écrin","chef":"Christopher Hache","stars":1,"isOnLaF":false},{"urlMichelin":"https://restaurant.michelin.fr/2chq5p0/chateau-cordeillan-bages-pauillac","address":{"thoroughfare":"Route des châteaux","postalcode":"33250","locality":"Pauillac"},"name":"Château Cordeillan-Bages","chef":"Julien Lefebvre","stars":1,"isOnLaF":false},{"urlMichelin":"https://restaurant.michelin.fr/2dtoif7/les-voiles-dor-dieppe","address":{"thoroughfare":"2 chemin de la Falaise","postalcode":"76200","locality":"Dieppe"},"name":"Les Voiles d'Or","chef":"Tristan Arhan","stars":1,"isOnLaF":false},{"urlMichelin":"https://restaurant.michelin.fr/2aiqpqd/gordon-ramsay-au-trianon-versailles","address":{"thoroughfare":"1 bd de la Reine","postalcode":"78000","locality":"Versailles"},"name":"Gordon Ramsay au Trianon","chef":"","stars":1,"isOnLaF":false},{"urlMichelin":"https://restaurant.michelin.fr/297ge86/jean-claude-leclerc-clermont-ferrand","address":{"thoroughfare":"12 rue St-Adjutor","postalcode":"63000","locality":"Clermont-Ferrand"},"name":"Jean-Claude Leclerc","chef":"Jean-Claude Leclerc","stars":1,"isOnLaF":false},{"urlMichelin":"https://restaurant.michelin.fr/2b38wht/sept-toulouse","address":{"thoroughfare":"7 pl. St-Sernin","postalcode":"31000","locality":"Toulouse"},"name":"SEPT","chef":"Guillaume Momboisse","stars":1,"isOnLaF":false},{"urlMichelin":"https://restaurant.michelin.fr/2f4bg71/la-pyramide-patrick-henriroux-vienne","address":{"thoroughfare":"14 Boulevard Fernand Point","postalcode":"38200","locality":"Vienne"},"name":"La Pyramide-Patrick Henriroux","chef":"Patrick Henriroux","stars":2,"isOnLaF":false},{"urlMichelin":"https://restaurant.michelin.fr/2852206/larcheste-paris-16","address":{"thoroughfare":"79 rue de la Tour","postalcode":"75116","locality":"Paris"},"name":"L'Archeste","chef":"Yoshiaki Ito","stars":1,"isOnLaF":false},{"urlMichelin":"https://restaurant.michelin.fr/2aa11xs/arpege-paris-07","address":{"thoroughfare":"84 Rue de Varenne","postalcode":"75007","locality":"Paris"},"name":"Arpège","chef":"Alain Passard","stars":3,"isOnLaF":false},{"urlMichelin":"https://restaurant.michelin.fr/amv21i8/1741-strasbourg","address":{"thoroughfare":"22 Quai des Bateliers","postalcode":"67000","locality":"Strasbourg"},"name":"1741","chef":"Fabien Raux","stars":1,"isOnLaF":false},{"urlMichelin":"https://restaurant.michelin.fr/28vem1k/la-grange-de-belle-eglise-belle-eglise","address":{"thoroughfare":"28 bd René-Aimé-Lagabrielle","postalcode":"60540","locality":"Belle-Église"},"name":"La Grange de Belle-Église","chef":"Marc Duval","stars":1,"isOnLaF":false},{"urlMichelin":"https://restaurant.michelin.fr/2byq8tg/les-bories-gordes","address":{"thoroughfare":"rte de l'Abbaye de Sénanque","postalcode":"84220","locality":"Gordes"},"name":"Les Bories","chef":"MIRER Gregory","stars":1,"isOnLaF":false},{"urlMichelin":"https://restaurant.michelin.fr/3vxe9bf/toya-faulquemont","address":{"thoroughfare":"av. Jean-Monnet","postalcode":"57380","locality":"Faulquemont"},"name":"Toya","chef":"Loïc Villemin","stars":1,"isOnLaF":false},{"urlMichelin":"https://restaurant.michelin.fr/am8q9hp/le-kintessence-courchevel-1850","address":{"thoroughfare":"Rue des Clarines","postalcode":"73120","locality":"Courchevel 1850"},"name":"Le Kintessence","chef":"Jean-Rémi Caillon","stars":2,"isOnLaF":false},{"urlMichelin":"https://restaurant.michelin.fr/h43i086/le-clocher-des-peres-saint-martin-sur-la-chambre","address":{"thoroughfare":"D213","postalcode":"73130","locality":"Saint-Martin-sur-la-Chambre"},"name":"Le Clocher des Pères","chef":"Pierre Troccaz","stars":1,"isOnLaF":false},{"urlMichelin":"https://restaurant.michelin.fr/28qk3fo/la-renaissance-argentan","address":{"thoroughfare":"20 av. 2e-Division-Blindée","postalcode":"61200","locality":"Argentan"},"name":"La Renaissance","chef":"Arnaud Viel","stars":1,"isOnLaF":false},{"urlMichelin":"https://restaurant.michelin.fr/29uvz3j/pierre-macon","address":{"thoroughfare":"7-9 rue Joseph Dufour","postalcode":"71000","locality":"Mâcon"},"name":"Pierre","chef":"Christian Gaulin","stars":1,"isOnLaF":false},{"urlMichelin":"https://restaurant.michelin.fr/2a92anu/relais-louis-xiii-paris-06","address":{"thoroughfare":"8 Rue des Grands Augustins","postalcode":"75006","locality":"Paris"},"name":"Relais Louis XIII","chef":"Manuel Martinez","stars":1,"isOnLaF":false},{"urlMichelin":"https://restaurant.michelin.fr/9oo4cel/penati-al-baretto-paris-08","address":{"thoroughfare":"9 rue Balzac","postalcode":"75008","locality":"Paris 08"},"name":"Penati al Baretto","chef":"Alberico Penati","stars":1,"isOnLaF":false},{"urlMichelin":"https://restaurant.michelin.fr/2cndbvx/rackham-roscoff","address":{"thoroughfare":"27 pl. Lacaze Duthiers rčs de l'église","postalcode":"29680","locality":"ROSCOFF"},"name":"Rackham","chef":"Arthur Péran","stars":1,"isOnLaF":false},{"urlMichelin":"https://restaurant.michelin.fr/2f8ln9w/la-table-breizh-cafe-cancale","address":{"thoroughfare":"7 quai Thomas","postalcode":"35260","locality":"Cancale"},"name":"La Table Breizh Café","chef":"Fumio KUDAKA","stars":1,"isOnLaF":false},{"urlMichelin":"https://restaurant.michelin.fr/3tkmico/la-grignotiere-raismes","address":{"thoroughfare":"6 Rue Jean Jaures","postalcode":"59590","locality":"Raismes"},"name":"La Grignotière","chef":"Pascal Coulon","stars":1,"isOnLaF":false},{"urlMichelin":"https://restaurant.michelin.fr/2a7edmf/le-grand-vefour-paris-01","address":{"thoroughfare":"17 rue de Beaujolais","postalcode":"75001","locality":"Paris"},"name":"Le Grand Véfour","chef":"Guy Martin","stars":2,"isOnLaF":false},{"urlMichelin":"https://restaurant.michelin.fr/3yjthyc/le-musigny-valenciennes","address":{"thoroughfare":"90 Avenue de Liege","postalcode":"59300","locality":"Valenciennes"},"name":"Le Musigny","chef":"Emmanuel Hernandez","stars":1,"isOnLaF":false},{"urlMichelin":"https://restaurant.michelin.fr/2e8vcj7/larome-paris-08","address":{"thoroughfare":"3 rue St-Philippe-du-Roule","postalcode":"75008","locality":"Paris 08"},"name":"L'Arôme","chef":"BOULLAULT THOMAS","stars":1,"isOnLaF":false},{"urlMichelin":"https://restaurant.michelin.fr/2dyaa0w/la-cachette-valence","address":{"thoroughfare":"Rue des Cévennes","postalcode":"26000","locality":"Valence"},"name":"La Cachette","chef":"Masashi Ijichi","stars":1,"isOnLaF":false},{"urlMichelin":"https://restaurant.michelin.fr/2b6gbtl/le-bec-au-cauchois-valmont","address":{"thoroughfare":"22 Rue André Fiquet","postalcode":"76540","locality":"Valmont"},"name":"Le Bec au Cauchois","chef":"Pierre Caillet","stars":1,"isOnLaF":false},{"urlMichelin":"https://restaurant.michelin.fr/2csqkr7/la-vague-dor-saint-tropez","address":{"thoroughfare":"Plage de Bouillabaisse","postalcode":"83990","locality":"Saint-Tropez"},"name":"La Vague d'Or","chef":"Arnaud Donckele","stars":3,"isOnLaF":false},{"urlMichelin":"https://restaurant.michelin.fr/2faahd5/le-clair-de-la-plume-grignan","address":{"thoroughfare":"2 Place du Mail","postalcode":"26230","locality":"Grignan"},"name":"Le Clair de la Plume","chef":"Julien ALLANO, Chef de Cuisine","stars":1,"isOnLaF":false},{"urlMichelin":"https://restaurant.michelin.fr/28yvb9u/la-matelote-boulogne-sur-mer","address":{"thoroughfare":"80 Boulevard Ste Beuve","postalcode":"62200","locality":"BOULOGNE-SUR-MER"},"name":"La Matelote","chef":"Tony Lestienne","stars":1,"isOnLaF":false},{"urlMichelin":"https://restaurant.michelin.fr/2ewn3lj/latelier-du-peintre-colmar","address":{"thoroughfare":"1 Rue Schongauer","postalcode":"68000","locality":"Colmar"},"name":"L'Atelier du Peintre","chef":"Loïc Lefebvre","stars":1,"isOnLaF":false},{"urlMichelin":"https://restaurant.michelin.fr/2d2wqpd/le-prieure-villeneuve-les-avignon","address":{"thoroughfare":"7, place du Chapitre","postalcode":"30400","locality":"Villeneuve-lès-Avignon"},"name":"Le Prieuré","chef":"Marc Fontanne ","stars":1,"isOnLaF":false},{"urlMichelin":"https://restaurant.michelin.fr/2d32mvv/le-france-villers-le-lac","address":{"thoroughfare":"8 place Cupillard","postalcode":"25130","locality":"VILLERS-LE-LAC"},"name":"Le France","chef":"Hugues Droz","stars":1,"isOnLaF":false},{"urlMichelin":"https://restaurant.michelin.fr/2b3631b/stephane-tournie-les-jardins-de-lopera-toulouse","address":{"thoroughfare":"1 place du Capitole","postalcode":"31000","locality":"Toulouse"},"name":"Stéphane Tournié - Les Jardins de l'Opéra","chef":"Stéphane Tournié","stars":1,"isOnLaF":false},{"urlMichelin":"https://restaurant.michelin.fr/ua271jkd/la-table-lille","address":{"thoroughfare":"32 Rue de la Barre","postalcode":"59000","locality":"Lille"},"name":"La Table","chef":"Thibaut GAMBA","stars":1,"isOnLaF":false},{"urlMichelin":"https://restaurant.michelin.fr/2dyfstx/meurin-busnes","address":{"thoroughfare":"Rue de Lillers","postalcode":"62350","locality":"Busnes"},"name":"Meurin","chef":"Marc Meurin","stars":2,"isOnLaF":false},{"urlMichelin":"https://restaurant.michelin.fr/29t3z0x/les-loges-lyon-05","address":{"thoroughfare":"6 r. du Boeuf","postalcode":"69005","locality":"Lyon 05"},"name":"Les Loges","chef":"Anthony Bonnet","stars":1,"isOnLaF":false},{"urlMichelin":"https://restaurant.michelin.fr/2aoyre2/maximilien-zellenberg","address":{"thoroughfare":"19a rte Ostheim","postalcode":"68340","locality":"Zellenberg"},"name":"Maximilien","chef":"Jean-Michel Eblin","stars":1,"isOnLaF":false},{"urlMichelin":"https://restaurant.michelin.fr/2f3fs2n/114-faubourg-paris-08","address":{"thoroughfare":"114 r. Fg St-Honoré","postalcode":"75008","locality":"Paris 08"},"name":"114, Faubourg","chef":"Loïc Dantec","stars":1,"isOnLaF":false},{"urlMichelin":"https://restaurant.michelin.fr/akfvyg8/la-table-de-nans-la-ciotat","address":{"thoroughfare":"corniche du Liouquet","postalcode":"13600","locality":"La Ciotat"},"name":"La Table de Nans","chef":"Nans Gaillard","stars":1,"isOnLaF":false},{"urlMichelin":"https://restaurant.michelin.fr/29ajku0/le-lido-propriano","address":{"thoroughfare":"42 av. Napoléon-III","postalcode":"20110","locality":"Propriano"},"name":"Le Lido","chef":"Romuald ROYER","stars":1,"isOnLaF":false},{"urlMichelin":"https://restaurant.michelin.fr/2ao77e3/auberge-du-pont-dacigne-noyal-sur-vilaine","address":{"thoroughfare":"D392","postalcode":"35530","locality":"Noyal-sur-Vilaine"},"name":"Auberge du Pont d'Acigné","chef":"Sylvain Guillemot","stars":1,"isOnLaF":false},{"urlMichelin":"https://restaurant.michelin.fr/2aosxv6/la-table-du-gourmet-riquewihr","address":{"thoroughfare":"5 rue 1ère Armée","postalcode":"68340","locality":"Riquewihr"},"name":"La Table du Gourmet","chef":"Jean-Luc Brendel","stars":1,"isOnLaF":false},{"urlMichelin":"https://restaurant.michelin.fr/29trkin/le-gourmet-de-seze-lyon-06","address":{"thoroughfare":"125 Rue de Sèze","postalcode":"69006","locality":"Lyon"},"name":"Le Gourmet de Sèze","chef":"Bernard Mariller","stars":1,"isOnLaF":false},{"urlMichelin":"https://restaurant.michelin.fr/olnthqo/skab-nimes","address":{"thoroughfare":"7 Rue de la République","postalcode":"30000","locality":"nimes"},"name":"Skab","chef":"Alban BARBETTE et Damien SANCHEZ","stars":1,"isOnLaF":false},{"urlMichelin":"https://restaurant.michelin.fr/9tlmhvt/la-table-de-lalpaga-megeve","address":{"thoroughfare":"66 Allée des Marmousets","postalcode":"74120","locality":"Megève"},"name":"La Table de l'Alpaga","chef":"Anthony Bisquerra","stars":1,"isOnLaF":false},{"urlMichelin":"https://restaurant.michelin.fr/29dyqga/auberge-de-la-charme-prenois","address":{"thoroughfare":"12 r. de la Charme","postalcode":"21370","locality":"Prenois"},"name":"Auberge de la Charme","chef":"Nicolas Isnard et David Le Comte","stars":1,"isOnLaF":false},{"urlMichelin":"https://restaurant.michelin.fr/2d1gnwo/le-saint-martin-vence","address":{"thoroughfare":"Avenue des Templiers","postalcode":"06140","locality":"Vence"},"name":"Le Saint-Martin","chef":"Jean-Luc Lefrançois","stars":1,"isOnLaF":false},{"urlMichelin":"https://restaurant.michelin.fr/kl196wcf/au-crocodile-strasbourg","address":{"thoroughfare":"10 rue de L'Outre","postalcode":"67000","locality":"STRASBOURG"},"name":"Au Crocodile","chef":"Franck Pelux","stars":1,"isOnLaF":false},{"urlMichelin":"https://restaurant.michelin.fr/1t2b08px/jin-paris-01","address":{"thoroughfare":"6 Rue de la Sourdière","postalcode":"75001","locality":"Paris"},"name":"Jin","chef":"Taku","stars":1,"isOnLaF":false},{"urlMichelin":"https://restaurant.michelin.fr/2bavyqh/la-lorraine-zoufftgen","address":{"thoroughfare":"80 rue Principale","postalcode":"57330","locality":"Zoufftgen"},"name":"La Lorraine","chef":"Lucien Keff","stars":1,"isOnLaF":false},{"urlMichelin":"https://restaurant.michelin.fr/29n79hz/la-marine-lherbaudiere","address":{"thoroughfare":"3 r. Marie-Lemonnier","postalcode":"85330","locality":"L'Herbaudière"},"name":"La Marine","chef":"Alexandre Couillon","stars":2,"isOnLaF":false},{"urlMichelin":"https://restaurant.michelin.fr/2a619xs/le-bistro-des-saveurs-obernai","address":{"thoroughfare":"35 Rue de Sélestat","postalcode":"67210","locality":"Obernai"},"name":"Le Bistro des Saveurs","chef":"Thierry Schwartz","stars":1,"isOnLaF":false},{"urlMichelin":"https://restaurant.michelin.fr/2bwkh5l/la-chevre-dor-eze","address":{"thoroughfare":"r. du Barri","postalcode":"06360","locality":"Èze"},"name":"La Chèvre d'Or","chef":"Arnaud Faye, Chef Exécutif et Julien Dugourd, Chef Pâtissier","stars":2,"isOnLaF":false},{"urlMichelin":"https://restaurant.michelin.fr/2elnjes/la-maison-dans-le-parc-nancy","address":{"thoroughfare":"3 r. Ste-Catherine","postalcode":"54000","locality":"Nancy"},"name":"La Maison dans le Parc","chef":"Françoise Mutel","stars":1,"isOnLaF":false},{"urlMichelin":"https://restaurant.michelin.fr/2916876/copenhague-paris-08","address":{"thoroughfare":"142 AVENUE DES CHAMPS ELYSEES","postalcode":"75008","locality":"PARIS"},"name":"Copenhague","chef":"Andreas Møller","stars":1,"isOnLaF":false},{"urlMichelin":"https://restaurant.michelin.fr/2cz3yz2/le-vieux-logis-tremolat","address":{"thoroughfare":"Le Bourg","postalcode":"24510","locality":"Trémolat"},"name":"Le Vieux Logis","chef":"ARNOULD Vincent","stars":1,"isOnLaF":false},{"urlMichelin":"https://restaurant.michelin.fr/2eac1q1/le-1947-courchevel-1850","address":{"thoroughfare":"Cheval Blanc Courchevel - Le Jardin Alpin","postalcode":"73120","locality":"Courchevel 1850"},"name":"Le 1947","chef":"Yannick Alléno","stars":3,"isOnLaF":false},{"urlMichelin":"https://restaurant.michelin.fr/9wstvf9t/la-table-de-manville-les-baux-de-provence","address":{"thoroughfare":"Domaine de Manville - D27","postalcode":"13520","locality":"LES-BAUX-DE-PROVENCE"},"name":"La Table de Manville","chef":"Matthieu Dupuis-Baumal","stars":1,"isOnLaF":false},{"urlMichelin":"https://restaurant.michelin.fr/9pbvgq6a/fontevraud-le-restaurant-fontevraud-labbaye","address":{"thoroughfare":"38 rue St-Jean-de-l'Habit","postalcode":"49590","locality":"FONTEVRAUD-L'ABBAYE"},"name":"Fontevraud Le Restaurant","chef":"Thibaut Ruggeri","stars":1,"isOnLaF":false},{"urlMichelin":"https://restaurant.michelin.fr/2btuhm0/la-palmeraie-la-croix-valmer","address":{"thoroughfare":"81 Boulevard de Gigaro","postalcode":"83420","locality":"La Croix-Valmer"},"name":"La Palmeraie","chef":"Jimmy Coutel","stars":1,"isOnLaF":false},{"urlMichelin":"https://restaurant.michelin.fr/2d6bc3s/le-grand-bleu-sarlat-la-caneda","address":{"thoroughfare":"43 av. de la Gare","postalcode":"24200","locality":"Sarlat-la-Canéda"},"name":"Le Grand Bleu","chef":"Maxime Lebrun","stars":1,"isOnLaF":false},{"urlMichelin":"https://restaurant.michelin.fr/3045466/alan-geaam-paris-16","address":{"thoroughfare":"19 Rue Lauriston","postalcode":"75016","locality":"Paris"},"name":"Alan Geaam","chef":"Alan Geaam","stars":1,"isOnLaF":false},{"urlMichelin":"https://restaurant.michelin.fr/2ev16nl/le-pre-xavier-beaudiment-durtol","address":{"thoroughfare":"3 Route de la Baraque","postalcode":"63830","locality":"Durtol"},"name":"Le Pré - Xavier Beaudiment","chef":"BEAUDIMENT Xavier","stars":2,"isOnLaF":false},{"urlMichelin":"https://restaurant.michelin.fr/2aga7gz/auberge-des-saints-peres-aulnay-sous-bois","address":{"thoroughfare":"212 av. de Nonneville","postalcode":"93600","locality":"Aulnay-sous-Bois"},"name":"Auberge des Saints Pères","chef":"Jean-Claude Cahagnet","stars":1,"isOnLaF":false},{"urlMichelin":"https://restaurant.michelin.fr/28wgjgo/le-pave-dauge-beuvron-en-auge","address":{"thoroughfare":"D49","postalcode":"14430","locality":"Beuvron-en-Auge"},"name":"Le Pavé d'Auge","chef":"Jérôme Bansard","stars":1,"isOnLaF":false},{"urlMichelin":"https://restaurant.michelin.fr/2a02pjj/auberge-du-cellier-montner","address":{"thoroughfare":"1 Rue de Sainte-Eugénie","postalcode":"66720","locality":"Montner"},"name":"Auberge du Cellier","chef":"Pierre-Louis Marin","stars":1,"isOnLaF":false},{"urlMichelin":"https://restaurant.michelin.fr/3068881/louison-le-puy-sainte-reparade","address":{"thoroughfare":"2750 route de la cride","postalcode":"13610","locality":"Le Puy-Sainte-Réparade"},"name":"Louison","chef":"Gérald Passedat","stars":1,"isOnLaF":false},{"urlMichelin":"https://restaurant.michelin.fr/2d8d9p1/la-reserve-rimbaud-montpellier","address":{"thoroughfare":"820 Avenue de Saint-Maur","postalcode":"34000","locality":"Montpellier"},"name":"La Réserve Rimbaud","chef":"Charles Fontes","stars":1,"isOnLaF":false},{"urlMichelin":"https://restaurant.michelin.fr/2atzy38/la-ferme-de-lhospital-bossey","address":{"thoroughfare":"rte du golf","postalcode":"74160","locality":"Bossey"},"name":"La Ferme de l'Hospital","chef":"Jean-Jacques Noguier","stars":1,"isOnLaF":false},{"urlMichelin":"https://restaurant.michelin.fr/2a2flya/auberge-grandmaison-mur-de-bretagne","address":{"thoroughfare":"1 r. Léon-le-Cerf","postalcode":"22530","locality":"Mûr-de-Bretagne"},"name":"Auberge Grand'Maison","chef":"Christophe Le Fur","stars":1,"isOnLaF":false},{"urlMichelin":"https://restaurant.michelin.fr/9p2kj2b/elsa-cap-martin","address":{"thoroughfare":"Monte-Carlo Beach - Avenue Princesse Grace","postalcode":"06190","locality":"Roquebrune Cap-Martin"},"name":"Elsa","chef":"Paolo Sari","stars":1,"isOnLaF":false},{"urlMichelin":"https://restaurant.michelin.fr/2coonxc/les-trois-soleils-de-montal-saint-cere","address":{"thoroughfare":"St-Jean-Lespinasse","postalcode":"46400","locality":"Saint-Céré"},"name":"Les Trois Soleils de Montal","chef":"Frédérik Bizat","stars":1,"isOnLaF":false},{"urlMichelin":"https://restaurant.michelin.fr/2dk81h5143/casadelmar-porto-vecchio","address":{"thoroughfare":"Route de la Plage de Palombaggia","postalcode":"20137","locality":"Porto-Vecchio"},"name":"Casadelmar","chef":"Fabio Bragagnolo","stars":2,"isOnLaF":false},{"urlMichelin":"https://restaurant.michelin.fr/2affgmi/apicius-paris-08","address":{"thoroughfare":"20 r. d'Artois","postalcode":"75008","locality":"PARIS"},"name":"Apicius","chef":"","stars":1,"isOnLaF":false},{"urlMichelin":"https://restaurant.michelin.fr/3ffu4gq2/i-salti-belgodere","address":{"thoroughfare":"route du Reginu","postalcode":"20226","locality":"Belgodère"},"name":"I Salti","chef":"David Doury","stars":1,"isOnLaF":false},{"urlMichelin":"https://restaurant.michelin.fr/8zgzs262/la-maison-des-bois-marc-veyrat-manigod","address":{"thoroughfare":"Chemin Rural de Manigod au Col de la Croix Fry","postalcode":"74230","locality":"Manigod"},"name":"La Maison des Bois - Marc Veyrat","chef":"Marc Veyrat","stars":3,"isOnLaF":false},{"urlMichelin":"https://restaurant.michelin.fr/2e043qi/flaveurs-valence","address":{"thoroughfare":"32 Grande-Rue","postalcode":"26000","locality":"Valence"},"name":"Flaveurs","chef":"Baptiste Poinot","stars":1,"isOnLaF":false},{"urlMichelin":"https://restaurant.michelin.fr/2enzj8x/stephane-carbone-caen","address":{"thoroughfare":"14 r. de Courtonne","postalcode":"14000","locality":"Caen"},"name":"Stéphane Carbone","chef":"","stars":1,"isOnLaF":false},{"urlMichelin":"https://restaurant.michelin.fr/29vchdk/le-beaulieu-le-mans","address":{"thoroughfare":"34 Bis Place République","postalcode":"72000","locality":"Le Mans"},"name":"Le Beaulieu","chef":"Olivier Boussard","stars":1,"isOnLaF":false},{"urlMichelin":"https://restaurant.michelin.fr/9tr3fvt/lesquisse-annecy","address":{"thoroughfare":"21 rue Royale","postalcode":"74000","locality":"Annecy"},"name":"L'Esquisse","chef":"Stéphane Dattrino","stars":1,"isOnLaF":false},{"urlMichelin":"https://restaurant.michelin.fr/29i66ux/laxel-fontainebleau","address":{"thoroughfare":"43 r. de France","postalcode":"77300","locality":"Fontainebleau"},"name":"L'Axel","chef":"Kunihisa Goto","stars":1,"isOnLaF":false},{"urlMichelin":"https://restaurant.michelin.fr/2dzh7q2/aida-paris-07","address":{"thoroughfare":"1 r. Pierre Leroux","postalcode":"75007","locality":"Paris 07"},"name":"Aida","chef":"Koji Aida","stars":1,"isOnLaF":false},{"urlMichelin":"https://restaurant.michelin.fr/28pylpu/maison-jeunet-arbois","address":{"thoroughfare":"9 r. de l'Hôtel-de-Ville","postalcode":"39600","locality":"Arbois"},"name":"Maison Jeunet","chef":"Steven Naessens","stars":2,"isOnLaF":false},{"urlMichelin":"https://restaurant.michelin.fr/29sgjsx279/auberge-la-feniere-cadenet","address":{"thoroughfare":"D943","postalcode":"84160","locality":"Cadenet"},"name":"Auberge La Fenière","chef":"Reine Sammut","stars":1,"isOnLaF":false},{"urlMichelin":"https://restaurant.michelin.fr/2apfrj5/christopher-coutanceau-la-rochelle","address":{"thoroughfare":"Promenade de la Concurrence","postalcode":"17000","locality":"La Rochelle"},"name":"Christopher Coutanceau","chef":"CHRISTOPHER COUTANCEAU","stars":2,"isOnLaF":false},{"urlMichelin":"https://restaurant.michelin.fr/2b7at88/dan-b-la-table-de-ventabren-ventabren","address":{"thoroughfare":"r. F. -Mistral","postalcode":"13122","locality":"Ventabren"},"name":"Dan B. - La Table de Ventabren","chef":"Dan Bessoudo","stars":1,"isOnLaF":false},{"urlMichelin":"https://restaurant.michelin.fr/28xqe8v/letang-du-moulin-bonnetage","address":{"thoroughfare":"5 chemin de l'Etang du Moulin","postalcode":"25210","locality":"Bonnétage"},"name":"L'Étang du Moulin","chef":"Jacques Barnachon","stars":1,"isOnLaF":false},{"urlMichelin":"https://restaurant.michelin.fr/2bi0j2j/les-trois-rochers-sainte-marine","address":{"thoroughfare":"16 rue du Phare","postalcode":"29120","locality":"Sainte-Marine"},"name":"Les Trois Rochers","chef":"Fréderic Claquin","stars":1,"isOnLaF":false},{"urlMichelin":"https://restaurant.michelin.fr/2erjwfi/une-ile-angers","address":{"thoroughfare":"9 r. Max-Richard","postalcode":"49000","locality":"Angers"},"name":"Une Île","chef":"Gérard Bossé","stars":1,"isOnLaF":false},{"urlMichelin":"https://restaurant.michelin.fr/jgutdlg/la-table-du-connetable-chantilly","address":{"thoroughfare":"4 Rue du Connétable","postalcode":"60500","locality":"Chantilly"},"name":"La Table du Connétable","chef":"Julien Lucas","stars":1,"isOnLaF":false},{"urlMichelin":"https://restaurant.michelin.fr/jh83esx/qui-plume-la-lune-paris-11","address":{"thoroughfare":"50 r. Amelot","postalcode":"75011","locality":"Paris 11"},"name":"Qui plume la Lune","chef":"Jacky Ribault","stars":1,"isOnLaF":false},{"urlMichelin":"https://restaurant.michelin.fr/2bh3p7k/restaurant-des-rois-beaulieu-sur-mer","address":{"thoroughfare":"5 Boulevard du Maréchal Leclerc","postalcode":"06310","locality":"Beaulieu-sur-Mer"},"name":"Restaurant des Rois","chef":"Yannick Franques","stars":1,"isOnLaF":false},{"urlMichelin":"https://restaurant.michelin.fr/44ahwpa/le-passe-temps-lyon-06","address":{"thoroughfare":"52 Rue Tronchet","postalcode":"69006","locality":"Lyon"},"name":"Le Passe Temps","chef":"Younghoon Lee","stars":1,"isOnLaF":false},{"urlMichelin":"https://restaurant.michelin.fr/1ad26y4c/likoke-les-vans","address":{"thoroughfare":"7 rte de Païolive","postalcode":"07140","locality":"Les Vans"},"name":"Likoké","chef":"Piet Huysentruyt","stars":1,"isOnLaF":false},{"urlMichelin":"https://restaurant.michelin.fr/d4dm7ddr/la-table-du-11-versailles","address":{"thoroughfare":"8 rue de la chancellerie","postalcode":"78000","locality":"Versailles"},"name":"La Table du 11","chef":"Jean-Baptiste Lavergne-Morazzani","stars":1,"isOnLaF":false},{"urlMichelin":"https://restaurant.michelin.fr/2bnvpvu/albert-1er-chamonix-mont-blanc","address":{"thoroughfare":"38 rte du Bouchet","postalcode":"74400","locality":"Chamonix-Mont-Blanc"},"name":"Albert 1er","chef":"Pierre Maillet","stars":2,"isOnLaF":false},{"urlMichelin":"https://restaurant.michelin.fr/ua2fx9zg/le-champ-des-lunes-lauris","address":{"thoroughfare":"route de Roquefraîche","postalcode":"84360","locality":"Lauris"},"name":"Le Champ des Lunes","chef":"Jérôme FAURE","stars":1,"isOnLaF":false},{"urlMichelin":"https://restaurant.michelin.fr/2dlsvt0/la-balette-collioure","address":{"thoroughfare":"rte de Port-Vendres","postalcode":"66190","locality":"Collioure"},"name":"La Balette","chef":"Frederic Bacquie","stars":1,"isOnLaF":false},{"urlMichelin":"https://restaurant.michelin.fr/cpiyfjc0/prairial-lyon","address":{"thoroughfare":"11 Rue Chavanne","postalcode":"69001","locality":"Lyon"},"name":"Prairial","chef":"Gaëtan Gentil","stars":1,"isOnLaF":false},{"urlMichelin":"https://restaurant.michelin.fr/akc6ovv/latelier-yssoirien-issoire","address":{"thoroughfare":"39 Boulevard Triozon-Bayle","postalcode":"63500","locality":"Issoire"},"name":"L'Atelier Yssoirien","chef":"Dorian Van Bronkhorst","stars":1,"isOnLaF":false},{"urlMichelin":"https://restaurant.michelin.fr/28s2o1u/maison-christian-etienne-avignon","address":{"thoroughfare":"10 Rue de Mons","postalcode":"84000","locality":"Avignon"},"name":"Maison Christian Étienne","chef":"Guilhem Sevin","stars":1,"isOnLaF":false},{"urlMichelin":"https://restaurant.michelin.fr/29nsjme/le-vivier-lisle-sur-la-sorgue","address":{"thoroughfare":"800 cours F. Peyre (rte de Carpentras)","postalcode":"84800","locality":"L'Isle-sur-la-Sorgue"},"name":"Le Vivier","chef":"ROMAIN GANDOLPHE","stars":1,"isOnLaF":false},{"urlMichelin":"https://restaurant.michelin.fr/29ask7o/auberge-de-la-brie-couilly-pont-aux-dames","address":{"thoroughfare":"14 av. Alphonse Boulingre","postalcode":"77860","locality":"Couilly-Pont-aux-Dames"},"name":"Auberge de la Brie","chef":"Alain Pavard","stars":1,"isOnLaF":false},{"urlMichelin":"https://restaurant.michelin.fr/2e9sbx2/quai-des-saveurs-hagondange","address":{"thoroughfare":"69 rue de la Gare","postalcode":"57300","locality":"Hagondange"},"name":"Quai des Saveurs","chef":"Frédéric Sandrini","stars":1,"isOnLaF":false},{"urlMichelin":"https://restaurant.michelin.fr/2b0sgrs/buerehiesel-strasbourg","address":{"thoroughfare":"dans le parc de l'Orangerie","postalcode":"67000","locality":"Strasbourg"},"name":"Buerehiesel","chef":"Eric Westermann","stars":1,"isOnLaF":false},{"urlMichelin":"https://restaurant.michelin.fr/2aeq3md/astrance-paris-16","address":{"thoroughfare":"4 r. Beethoven","postalcode":"75016","locality":"Paris"},"name":"Astrance","chef":"Pascal Barbot","stars":3,"isOnLaF":false},{"urlMichelin":"https://restaurant.michelin.fr/2ey495p/serge-vieira-chaudes-aigues","address":{"thoroughfare":"Château du Couffour","postalcode":"15110","locality":"Chaudes-Aigues"},"name":"Serge Vieira","chef":"","stars":2,"isOnLaF":false},{"urlMichelin":"https://restaurant.michelin.fr/9tnfzh4/le-7eme-continent-rixheim","address":{"thoroughfare":"35 av. Gén. -de-Gaulle","postalcode":"68170","locality":"Rixheim"},"name":"Le 7ème Continent","chef":"Laurent Haller","stars":1,"isOnLaF":false},{"urlMichelin":"https://restaurant.michelin.fr/2a3kuo9/la-table-saint-crescent-narbonne","address":{"thoroughfare":"route de Perpignan","postalcode":"11100","locality":"Narbonne"},"name":"La Table Saint-Crescent","chef":"Lionel Giraud","stars":1,"isOnLaF":false},{"urlMichelin":"https://restaurant.michelin.fr/2btao3c/le-chabichou-courchevel-1850","address":{"thoroughfare":"90 Route des Chenus","postalcode":"73120","locality":"Courchevel 1850"},"name":"Le Chabichou","chef":"Michel Rochedy et Stéphane Buron","stars":2,"isOnLaF":false},{"urlMichelin":"https://restaurant.michelin.fr/3x7v6dz/les-climats-paris-07","address":{"thoroughfare":"41 rue de Lille","postalcode":"75007","locality":"Paris 07"},"name":"Les Climats","chef":"Julien Boscus","stars":1,"isOnLaF":false},{"urlMichelin":"https://restaurant.michelin.fr/2ezpxm7/passage-53-paris-02","address":{"thoroughfare":"53 passage des Panoramas","postalcode":"75002","locality":"Paris"},"name":"Passage 53","chef":"Shinichi Sato","stars":2,"isOnLaF":false},{"urlMichelin":"https://restaurant.michelin.fr/2atmq22/le-kaiku-saint-jean-de-luz","address":{"thoroughfare":"17 r. de la République","postalcode":"64500","locality":"Saint-Jean-de-Luz"},"name":"Le Kaïku","chef":"Nicolas Borombo","stars":1,"isOnLaF":false},{"urlMichelin":"https://restaurant.michelin.fr/2c914ee/chateau-de-mirambeau-mirambeau","address":{"thoroughfare":"1 Avenue des Comtes Duchatel","postalcode":"17150","locality":"Mirambeau"},"name":"Château de Mirambeau","chef":"","stars":1,"isOnLaF":false},{"urlMichelin":"https://restaurant.michelin.fr/2f80e2p/au-14-fevrier-saint-valentin","address":{"thoroughfare":"2 r. du Portail","postalcode":"36100","locality":"Saint-Valentin"},"name":"Au 14 Février","chef":"","stars":1,"isOnLaF":false},{"urlMichelin":"https://restaurant.michelin.fr/28x2q9k/table-des-freres-ibarboure-bidart","address":{"thoroughfare":"chemin Ttalienea","postalcode":"64210","locality":"Bidart"},"name":"Table des Frères Ibarboure","chef":"Xabi et Patrice Ibarboure","stars":1,"isOnLaF":false},{"urlMichelin":"https://restaurant.michelin.fr/2fdyj14/py-r-toulouse","address":{"thoroughfare":"19 descente de la Halle-aux-Poissons","postalcode":"31000","locality":"Toulouse"},"name":"Py-r","chef":"Pierre Lambinon","stars":1,"isOnLaF":false},{"urlMichelin":"https://restaurant.michelin.fr/2a0ne3f/la-grenouillere-la-madelaine-sous-montreuil","address":{"thoroughfare":"19 r. de la Grenouillère","postalcode":"62170","locality":"La Madelaine-sous-Montreuil"},"name":"La Grenouillère","chef":"Alexandre Gauthier","stars":2,"isOnLaF":false},{"urlMichelin":"https://restaurant.michelin.fr/29svngf/les-trois-domes-lyon-02","address":{"thoroughfare":"20 quai Gailleton","postalcode":"69002","locality":"Lyon"},"name":"Les Trois Dômes","chef":"","stars":1,"isOnLaF":false},{"urlMichelin":"https://restaurant.michelin.fr/295zuzb/guy-lassausaie-chasselay","address":{"thoroughfare":"r. de Belle-Sise","postalcode":"69380","locality":"Chasselay"},"name":"Guy Lassausaie","chef":"","stars":2,"isOnLaF":false},{"urlMichelin":"https://restaurant.michelin.fr/9q8vl0jf/le-george-paris-08","address":{"thoroughfare":"31 Avenue George V","postalcode":"75008","locality":"Paris"},"name":"Le George","chef":"Simone Zanoni ","stars":1,"isOnLaF":false},{"urlMichelin":"https://restaurant.michelin.fr/29k1mm1/restaurant-de-lauzun-gignac","address":{"thoroughfare":"3 bd de l'Esplanade","postalcode":"34150","locality":"Gignac"},"name":"Restaurant de Lauzun","chef":"Matthieu de Lauzun","stars":1,"isOnLaF":false},{"urlMichelin":"https://restaurant.michelin.fr/29nnrkd/le-puits-st-jacques-pujaudran","address":{"thoroughfare":"av. Victor-Capoul","postalcode":"32600","locality":"Pujaudran"},"name":"Le Puits St-Jacques","chef":"Bernard Bach","stars":2,"isOnLaF":false},{"urlMichelin":"https://restaurant.michelin.fr/5f24ty3/la-table-dolivier-brive-la-gaillarde","address":{"thoroughfare":"3 r. St-Ambroise","postalcode":"19100","locality":"Brive-la-Gaillarde"},"name":"La Table d'Olivier","chef":"Pierre Neveu","stars":1,"isOnLaF":false},{"urlMichelin":"https://restaurant.michelin.fr/2feca5y/latelier-de-joel-robuchon-etoile-paris-08","address":{"thoroughfare":"133 av. des Champs-Élysées","postalcode":"75008","locality":"Paris"},"name":"L'Atelier de Joël Robuchon - Étoile","chef":"","stars":1,"isOnLaF":false},{"urlMichelin":"https://restaurant.michelin.fr/2bj1jms/la-bastide-de-capelongue-bonnieux","address":{"thoroughfare":"Chemin des Cabanes","postalcode":"84480","locality":"Bonnieux"},"name":"La Bastide de Capelongue","chef":"Édouard Loubet","stars":2,"isOnLaF":false},{"urlMichelin":"https://restaurant.michelin.fr/2dk9wkt/laquarelle-breuillet","address":{"thoroughfare":"71 A rte du Montil","postalcode":"17920","locality":"Breuillet"},"name":"L'Aquarelle","chef":"Xavier Taffart","stars":1,"isOnLaF":false},{"urlMichelin":"https://restaurant.michelin.fr/2947j86/maison-prevot-cavaillon","address":{"thoroughfare":"353 av. de Verdun","postalcode":"84300","locality":"Cavaillon"},"name":"Maison Prévôt","chef":"Jean-Jacques Prévôt","stars":1,"isOnLaF":false},{"urlMichelin":"https://restaurant.michelin.fr/2da93ps/avel-vor-port-louis","address":{"thoroughfare":"25 r. de Locmalo","postalcode":"56290","locality":"Port-Louis"},"name":"Avel Vor","chef":"Patrice Gahinet","stars":1,"isOnLaF":false},{"urlMichelin":"https://restaurant.michelin.fr/2a9xcsf/ze-kitchen-galerie-paris-06","address":{"thoroughfare":"4 r. des Grands-Augustins","postalcode":"75006","locality":"Paris"},"name":"Ze Kitchen Galerie","chef":"William Ledeuil","stars":1,"isOnLaF":false},{"urlMichelin":"https://restaurant.michelin.fr/2axydtb/la-tour-sancerre","address":{"thoroughfare":"31 Nouvelle-Place","postalcode":"18300","locality":"Sancerre"},"name":"La Tour","chef":"Baptiste Fournier","stars":1,"isOnLaF":false},{"urlMichelin":"https://restaurant.michelin.fr/2f8kr60/terre-mer-auray","address":{"thoroughfare":"16 r. du Jeu-de-Paume","postalcode":"56400","locality":"Auray"},"name":"Terre-Mer","chef":"Anthony Jéhanno","stars":1,"isOnLaF":false},{"urlMichelin":"https://restaurant.michelin.fr/2b4ne7u/les-chenes-verts-tourtour","address":{"thoroughfare":"rte de Villecroze","postalcode":"83690","locality":"Tourtour"},"name":"Les Chênes Verts","chef":"","stars":1,"isOnLaF":false},{"urlMichelin":"https://restaurant.michelin.fr/2agz71j/la-table-des-blot-auberge-du-chateau-dampierre-en-yvelines","address":{"thoroughfare":"1 Grande-Rue","postalcode":"78720","locality":"Dampierre-en-Yvelines"},"name":"La Table des Blot - Auberge du Château","chef":"Christophe Blot","stars":1,"isOnLaF":false},{"urlMichelin":"https://restaurant.michelin.fr/29c2o3y/la-petite-maison-de-cucuron-cucuron","address":{"thoroughfare":"pl. de l'Étang","postalcode":"84160","locality":"Cucuron"},"name":"La Petite Maison de Cucuron","chef":"Eric Sapet","stars":1,"isOnLaF":false},{"urlMichelin":"https://restaurant.michelin.fr/2e11xi8/saquana-honfleur","address":{"thoroughfare":"22 pl. Hamelin","postalcode":"14600","locality":"Honfleur"},"name":"SaQuaNa","chef":"Alexandre Bourdas","stars":2,"isOnLaF":false},{"urlMichelin":"https://restaurant.michelin.fr/n3jledr/la-promenade-verfeil","address":{"thoroughfare":"2 promenade Jean-Jaurès","postalcode":"31590","locality":"Verfeil"},"name":"La Promenade","chef":"Nicolas Thomas","stars":1,"isOnLaF":false},{"urlMichelin":"https://restaurant.michelin.fr/s5y0mmq/en-pleine-nature-fonsegrives","address":{"thoroughfare":"6 pl. de la Mairie","postalcode":"31130","locality":"Fonsegrives"},"name":"En Pleine Nature","chef":"Sylvain Joffre","stars":1,"isOnLaF":false},{"urlMichelin":"https://restaurant.michelin.fr/28n68fe/mariottat-agen","address":{"thoroughfare":"25 r. L.-Vivent","postalcode":"47000","locality":"Agen"},"name":"Mariottat","chef":"Éric Mariottat","stars":1,"isOnLaF":false},{"urlMichelin":"https://restaurant.michelin.fr/2b6s3ty/roscanvec-vannes","address":{"thoroughfare":"17 r. des Halles","postalcode":"56000","locality":"Vannes"},"name":"Roscanvec","chef":"Thierry Seychelles","stars":1,"isOnLaF":false},{"urlMichelin":"https://restaurant.michelin.fr/2c1rglq/le-mas-du-langoustier-hyeres","address":{"thoroughfare":"","postalcode":"83400","locality":"Hyères"},"name":"Le Mas du Langoustier","chef":"","stars":1,"isOnLaF":false},{"urlMichelin":"https://restaurant.michelin.fr/2ei9xex/umami-strasbourg","address":{"thoroughfare":"8 r. des Dentelles","postalcode":"67000","locality":"Strasbourg"},"name":"Umami","chef":"René Fieger","stars":1,"isOnLaF":false},{"urlMichelin":"https://restaurant.michelin.fr/2dduyu5/latelier-de-joel-robuchon-st-germain-paris-07","address":{"thoroughfare":"5 r. de Montalembert","postalcode":"75007","locality":"Paris"},"name":"L'Atelier de Joël Robuchon - St-Germain","chef":"","stars":2,"isOnLaF":false},{"urlMichelin":"https://restaurant.michelin.fr/2b380z8/michel-sarran-toulouse","address":{"thoroughfare":"21 bd A.-Duportal","postalcode":"31000","locality":"Toulouse"},"name":"Michel Sarran","chef":"","stars":2,"isOnLaF":false},{"urlMichelin":"https://restaurant.michelin.fr/28updvu/hostellerie-de-levernois-levernois","address":{"thoroughfare":"15 r. du Golf","postalcode":"21200","locality":"Levernois"},"name":"Hostellerie de Levernois","chef":"","stars":1,"isOnLaF":false},{"urlMichelin":"https://restaurant.michelin.fr/294fsc5/la-table-de-chaintre-chaintre","address":{"thoroughfare":"72 pl. du Luminaire","postalcode":"71570","locality":"Chaintré"},"name":"La Table de Chaintré","chef":"Sébastien Grospellier","stars":1,"isOnLaF":false},{"urlMichelin":"https://restaurant.michelin.fr/29pxfvs/le-puits-du-tresor-lastours","address":{"thoroughfare":"21 rte des Quatre-Châteaux","postalcode":"11600","locality":"Lastours"},"name":"Le Puits du Trésor","chef":"Jean-Marc Boyer","stars":1,"isOnLaF":false},{"urlMichelin":"https://restaurant.michelin.fr/jfxt32k/le-bistrot-de-lagarde-lagarde-dapt","address":{"thoroughfare":"rte d'Apt","postalcode":"84400","locality":"Lagarde-d'Apt"},"name":"Le Bistrot de Lagarde","chef":"Lloyd Tropeano","stars":1,"isOnLaF":false},{"urlMichelin":"https://restaurant.michelin.fr/2ayqw5m/le-gambetta-saumur","address":{"thoroughfare":"12 r. Gambetta","postalcode":"49400","locality":"Saumur"},"name":"Le Gambetta","chef":"Mickael Pihours","stars":1,"isOnLaF":false},{"urlMichelin":"https://restaurant.michelin.fr/2ckuncq/michel-trama-puymirol","address":{"thoroughfare":"52 r. Royale","postalcode":"47270","locality":"Puymirol"},"name":"Michel Trama","chef":"","stars":2,"isOnLaF":false},{"urlMichelin":"https://restaurant.michelin.fr/2ago3w6/le-chiquito-mery-sur-oise","address":{"thoroughfare":"3 r. de l'Oise, La Bonneville","postalcode":"95540","locality":"Méry-sur-Oise"},"name":"Le Chiquito","chef":"Alain Mihura","stars":1,"isOnLaF":false},{"urlMichelin":"https://restaurant.michelin.fr/2b0i0m7/au-dejeuner-de-sousceyrac-sousceyrac-en-quercy","address":{"thoroughfare":"r. Pierre-Benoit","postalcode":"46190","locality":"Sousceyrac"},"name":"Au Déjeuner de Sousceyrac","chef":"Patrick Lagnès","stars":1,"isOnLaF":false},{"urlMichelin":"https://restaurant.michelin.fr/9trxkaz/le-cercle-bourges","address":{"thoroughfare":"44 bd Lahitolle","postalcode":"18000","locality":"Bourges"},"name":"Le Cercle","chef":"Pascal Chaupitre et Christophe Lot","stars":1,"isOnLaF":false},{"urlMichelin":"https://restaurant.michelin.fr/2arajo6/cayola-bois-de-saint-jean","address":{"thoroughfare":"76 promenade de Cayola","postalcode":"85180","locality":"Talmont-Saint-Hilaire"},"name":"Cayola","chef":"","stars":1,"isOnLaF":false},{"urlMichelin":"https://restaurant.michelin.fr/3u9bmm3c/pertica-vendome","address":{"thoroughfare":"15 pl. de la République","postalcode":"41100","locality":"Vendôme"},"name":"Pertica","chef":"Guillaume Foucault","stars":1,"isOnLaF":false},{"urlMichelin":"https://restaurant.michelin.fr/2eebgpo/la-closerie-ansouis","address":{"thoroughfare":"bd des Platanes","postalcode":"84240","locality":"Ansouis"},"name":"La Closerie","chef":"Olivier Alemany","stars":1,"isOnLaF":false},{"urlMichelin":"https://restaurant.michelin.fr/29783wk/au-souper-fin-frichemesnil","address":{"thoroughfare":"1 rte de Clères","postalcode":"76690","locality":"Frichemesnil"},"name":"Au Souper Fin","chef":"Eric Buisset","stars":1,"isOnLaF":false},{"urlMichelin":"https://restaurant.michelin.fr/2f48mjv/le-lievre-gourmand-orleans","address":{"thoroughfare":"28 quai du Châtelet","postalcode":"45000","locality":"Orléans"},"name":"Le Lièvre Gourmand","chef":"Tristan Robreau","stars":1,"isOnLaF":false},{"urlMichelin":"https://restaurant.michelin.fr/3xrgyvn/septime-paris-11","address":{"thoroughfare":"80 r. de Charonne","postalcode":"75011","locality":"Paris"},"name":"Septime","chef":"Bertrand Grébaut","stars":1,"isOnLaF":false},{"urlMichelin":"https://restaurant.michelin.fr/29o99va/la-ribaudiere-bourg-charente","address":{"thoroughfare":"2 pl. du Port","postalcode":"16200","locality":"Bourg-Charente"},"name":"La Ribaudière","chef":"Thierry Verrat","stars":1,"isOnLaF":false},{"urlMichelin":"https://restaurant.michelin.fr/2dtylsa/meulien-tournus","address":{"thoroughfare":"1 bis av. des Alpes","postalcode":"71700","locality":"Tournus"},"name":"Meulien","chef":"Valéry Meulien","stars":1,"isOnLaF":false},{"urlMichelin":"https://restaurant.michelin.fr/2dwdwxo/lessentiel-perigueux","address":{"thoroughfare":"8 r. de la Clarté","postalcode":"24000","locality":"Périgueux"},"name":"L'Essentiel","chef":"Eric Vidal","stars":1,"isOnLaF":false},{"urlMichelin":"https://restaurant.michelin.fr/2es4wcd/briketenia-guethary","address":{"thoroughfare":"142 r. de l'Église","postalcode":"64210","locality":"Guéthary"},"name":"Brikéténia","chef":"Martin et David Ibarboure","stars":1,"isOnLaF":false},{"urlMichelin":"https://restaurant.michelin.fr/13ppe4f4/auberge-du-vert-mont-boeschepe","address":{"thoroughfare":"1318 r. du Mont-Noir","postalcode":"59299","locality":"Boeschepe"},"name":"Auberge du Vert Mont","chef":"Florent Ladeyn","stars":1,"isOnLaF":false},{"urlMichelin":"https://restaurant.michelin.fr/9tuayn9/la-coquerie-sete","address":{"thoroughfare":"1 chemin du Cimetière-Marin","postalcode":"34200","locality":"Sète"},"name":"La Coquerie","chef":"Anne Majourel","stars":1,"isOnLaF":false},{"urlMichelin":"https://restaurant.michelin.fr/dekdkvvj/le-favre-danne-angers","address":{"thoroughfare":"21 bd du Mar.-Foch","postalcode":"49000","locality":"Angers"},"name":"Le Favre d'Anne","chef":"Pascal Favre d'Anne","stars":1,"isOnLaF":false},{"urlMichelin":"https://restaurant.michelin.fr/2agf0d1/le-camelia-bougival","address":{"thoroughfare":"7 quai Georges Clemenceau","postalcode":"78380","locality":"Bougival"},"name":"Le Camélia","chef":"Thierry Conte","stars":1,"isOnLaF":false},{"urlMichelin":"https://restaurant.michelin.fr/2ahm97s/le-village-marly-le-roi","address":{"thoroughfare":"3 Grande-Rue","postalcode":"78160","locality":"Marly-le-Roi"},"name":"Le Village","chef":"Tomohiro Uido","stars":1,"isOnLaF":false},{"urlMichelin":"https://restaurant.michelin.fr/2et2alx/la-table-deugene-paris-18","address":{"thoroughfare":"18 r. Eugène-Sue","postalcode":"75018","locality":"Paris"},"name":"La Table d'Eugène","chef":"Geoffroy Maillard","stars":1,"isOnLaF":false},{"urlMichelin":"https://restaurant.michelin.fr/29v2jed/le-bon-accueil-malbuisson","address":{"thoroughfare":"32 Grande-Rue","postalcode":"25160","locality":"Malbuisson"},"name":"Le Bon Accueil","chef":"Marc Faivre","stars":1,"isOnLaF":false},{"urlMichelin":"https://restaurant.michelin.fr/2dfjaik/la-rastegue-bormes-les-mimosas","address":{"thoroughfare":"48 bd du Levant","postalcode":"83230","locality":"Bormes-les-Mimosas"},"name":"La Rastègue","chef":"Jérôme Masson","stars":1,"isOnLaF":false},{"urlMichelin":"https://restaurant.michelin.fr/2b44str/aux-terrasses-tournus","address":{"thoroughfare":"18 av. du 23-Janvier","postalcode":"71700","locality":"Tournus"},"name":"Aux Terrasses","chef":"Jean-Michel Carrette","stars":1,"isOnLaF":false},{"urlMichelin":"https://restaurant.michelin.fr/2jcivvu3/miraflores-lyon-06","address":{"thoroughfare":"60 r. Garibaldi","postalcode":"69006","locality":"Lyon"},"name":"Miraflores","chef":"Carlos Camino","stars":1,"isOnLaF":false},{"urlMichelin":"https://restaurant.michelin.fr/2anjd1l/le-foch-reims","address":{"thoroughfare":"37 bd Foch","postalcode":"51100","locality":"Reims"},"name":"Le Foch","chef":"Jacky Louazé","stars":1,"isOnLaF":false},{"urlMichelin":"https://restaurant.michelin.fr/28z3n7r/auberge-du-dun-le-bourg-dun","address":{"thoroughfare":"3 rte de Dieppe","postalcode":"76740","locality":"Le Bourg-Dun"},"name":"Auberge du Dun","chef":"Pierre Chrétien","stars":1,"isOnLaF":false},{"urlMichelin":"https://restaurant.michelin.fr/2e74el7/le-park-45-cannes","address":{"thoroughfare":"45 bd de la Croisette","postalcode":"06400","locality":"Cannes"},"name":"Le Park 45","chef":"","stars":1,"isOnLaF":false},{"urlMichelin":"https://restaurant.michelin.fr/2dcnkds/la-marande-montbellet","address":{"thoroughfare":"lieu-dit Mirande","postalcode":"71260","locality":"Montbellet"},"name":"La Marande","chef":"Philippe Michel","stars":1,"isOnLaF":false},{"urlMichelin":"https://restaurant.michelin.fr/29yz8b5/la-gloire-montargis","address":{"thoroughfare":"74 av. du Gén.-de-Gaulle","postalcode":"45200","locality":"Montargis"},"name":"La Gloire","chef":"Jean-Claude Martin","stars":1,"isOnLaF":false},{"urlMichelin":"https://restaurant.michelin.fr/2athka8/auberge-st-jean-saint-jean-de-blaignac","address":{"thoroughfare":"8 r. du Pont","postalcode":"33420","locality":"Saint-Jean-de-Blaignac"},"name":"Auberge St-Jean","chef":"Thomas L'Hérisson","stars":1,"isOnLaF":false},{"urlMichelin":"https://restaurant.michelin.fr/28vap07/vieux-pont-belcastel","address":{"thoroughfare":"","postalcode":"12390","locality":"Belcastel"},"name":"Vieux Pont","chef":"Nicole Fagegaltier et Bruno Rouquier","stars":1,"isOnLaF":false},{"urlMichelin":"https://restaurant.michelin.fr/2d4rcim/le-belvedere-bozouls","address":{"thoroughfare":"11 rte du Maquis-Jean-Pierre","postalcode":"12340","locality":"Bozouls"},"name":"Le Belvédère","chef":"Guillaume Viala","stars":1,"isOnLaF":false},{"urlMichelin":"https://restaurant.michelin.fr/2ei5hub/david-toutain-paris-07","address":{"thoroughfare":"29 r. Surcouf","postalcode":"75007","locality":"Paris"},"name":"David Toutain","chef":"","stars":1,"isOnLaF":false},{"urlMichelin":"https://restaurant.michelin.fr/2a32200/latlantide-1874-maison-gueho-nantes","address":{"thoroughfare":"5 r. de l'Hermitage","postalcode":"44100","locality":"Nantes"},"name":"L'Atlantide 1874 - Maison Guého","chef":"Jean-Yves Guého","stars":1,"isOnLaF":false},{"urlMichelin":"https://restaurant.michelin.fr/2a8xf2a/tour-dargent-paris-05","address":{"thoroughfare":"15 quai de la Tournelle","postalcode":"75005","locality":"Paris"},"name":"Tour d'Argent","chef":"","stars":1,"isOnLaF":false},{"urlMichelin":"https://restaurant.michelin.fr/28x0rz3/le-moulin-dalotz-alotz","address":{"thoroughfare":"chemin Alotz-Errota","postalcode":"64200","locality":"Alotz"},"name":"Le Moulin d'Alotz","chef":"Benoit Sarthou","stars":1,"isOnLaF":false},{"urlMichelin":"https://restaurant.michelin.fr/2c74pw3/le-cerf-marlenheim","address":{"thoroughfare":"30 r. du Gén.-de-Gaulle","postalcode":"67520","locality":"Marlenheim"},"name":"Le Cerf","chef":"Michel Husser et Joël Philipps","stars":1,"isOnLaF":false},{"urlMichelin":"https://restaurant.michelin.fr/2eh8fjc/le-pily-cherbourg-en-cotentin","address":{"thoroughfare":"39 Grande-Rue","postalcode":"50100","locality":"Cherbourg-en-Cotentin"},"name":"Le Pily","chef":"Pierre Marion","stars":1,"isOnLaF":false},{"urlMichelin":"https://restaurant.michelin.fr/2ejhn11/chateau-du-mont-joly-sampans","address":{"thoroughfare":"6 r. du Mont-Joly","postalcode":"39100","locality":"Sampans"},"name":"Château du Mont Joly","chef":"Romuald Fassenet","stars":1,"isOnLaF":false},{"urlMichelin":"https://restaurant.michelin.fr/2ejolq7/etincelles-la-gentilhommiere-sainte-sabine","address":{"thoroughfare":"","postalcode":"24440","locality":"Sainte-Sabine"},"name":"Étincelles - La Gentilhommière","chef":"Vincent Lucas","stars":1,"isOnLaF":false},{"urlMichelin":"https://restaurant.michelin.fr/28olvn9/laubergade-dury","address":{"thoroughfare":"78 rte Nationale","postalcode":"80480","locality":"Dury"},"name":"L'Aubergade","chef":"Eric Boutté","stars":1,"isOnLaF":false},{"urlMichelin":"https://restaurant.michelin.fr/2d7x1hk/la-table-des-cordeliers-condom","address":{"thoroughfare":"1 r. des Cordeliers","postalcode":"32100","locality":"Condom"},"name":"La Table des Cordeliers","chef":"Éric Sampietro","stars":1,"isOnLaF":false},{"urlMichelin":"https://restaurant.michelin.fr/2aa3qhg/le-jules-verne-paris-07","address":{"thoroughfare":"2<E>ème</E> étage Tour Eiffel","postalcode":"75007","locality":"Paris"},"name":"Le Jules Verne","chef":"","stars":1,"isOnLaF":false},{"urlMichelin":"https://restaurant.michelin.fr/28od0rp/le-prieure-ambierle","address":{"thoroughfare":"r. de la Mairie","postalcode":"42820","locality":"Ambierle"},"name":"Le Prieuré","chef":"Thierry Fernandes","stars":1,"isOnLaF":false},{"urlMichelin":"https://restaurant.michelin.fr/2d6m1yv/mon-plaisir-chamesol","address":{"thoroughfare":"22 lieu-dit Journal","postalcode":"25190","locality":"Chamesol"},"name":"Mon Plaisir","chef":"Christian Pilloud","stars":1,"isOnLaF":false},{"urlMichelin":"https://restaurant.michelin.fr/2f8f1gn/au-14-fevrier-lyon-05","address":{"thoroughfare":"36 r. du Bœuf","postalcode":"","locality":"Lyon 05"},"name":"Au 14 Février","chef":"Tsuyoshi Arai","stars":1,"isOnLaF":false},{"urlMichelin":"https://restaurant.michelin.fr/29jyv6a/cote-jardin-gien","address":{"thoroughfare":"14 rte de Bourges","postalcode":"45500","locality":"Gien"},"name":"Côté Jardin","chef":"Arnaud Billard","stars":1,"isOnLaF":false},{"urlMichelin":"https://restaurant.michelin.fr/3plxd2e/jeremy-galvan-lyon-05","address":{"thoroughfare":"Rue du Boeuf","postalcode":"69005","locality":"Lyon 05"},"name":"Jérémy Galvan","chef":"","stars":1,"isOnLaF":false},{"urlMichelin":"https://restaurant.michelin.fr/29pm63n/la-ville-blanche-rospez","address":{"thoroughfare":"La Ville Blanche","postalcode":"22300","locality":"Rospez"},"name":"La Ville Blanche","chef":"Jean-Yves Jaguin","stars":1,"isOnLaF":false},{"urlMichelin":"https://restaurant.michelin.fr/41vsxiz/lou-cigalon-maison-martin-valbonne","address":{"thoroughfare":"6 bd Carnot","postalcode":"06560","locality":"Valbonne"},"name":"Lou Cigalon-Maison Martin","chef":"Christophe Martin","stars":1,"isOnLaF":false},{"urlMichelin":"https://restaurant.michelin.fr/2bsyl7y/la-roya-saint-florent","address":{"thoroughfare":"plage de la Roya","postalcode":"20217","locality":"Saint-Florent"},"name":"La Roya","chef":"","stars":1,"isOnLaF":false},{"urlMichelin":"https://restaurant.michelin.fr/3ffqpazw/la-robe-montaigu","address":{"thoroughfare":"3 pl. Reveillère-Lepeaux","postalcode":"85600","locality":"Montaigu"},"name":"La Robe","chef":"Xavier Giraudet","stars":1,"isOnLaF":false},{"urlMichelin":"https://restaurant.michelin.fr/ou4s65x/chateau-blanchard-chazelles-sur-lyon","address":{"thoroughfare":"36 rte de St-Galmier","postalcode":"42140","locality":"Chazelles-sur-Lyon"},"name":"Château Blanchard","chef":"Sylvain Roux","stars":1,"isOnLaF":false},{"urlMichelin":"https://restaurant.michelin.fr/9ngaiit/le-peche-gourmand-briancon","address":{"thoroughfare":"2 rte de Gap","postalcode":"05100","locality":"Briançon"},"name":"Le Pêché Gourmand","chef":"Sharon et Jimmy Frannais","stars":1,"isOnLaF":false},{"urlMichelin":"https://restaurant.michelin.fr/2f4nbgd/la-fourchette-du-printemps-paris-17","address":{"thoroughfare":"30 r. du Printemps","postalcode":"75017","locality":"Paris"},"name":"La Fourchette du Printemps","chef":"Nicolas Mouton","stars":1,"isOnLaF":false},{"urlMichelin":"https://restaurant.michelin.fr/3wc5nsy/contre-sens-caen","address":{"thoroughfare":"8-10 r. des Croisiers","postalcode":"14000","locality":"Caen"},"name":"À Contre Sens","chef":"Anthony Caillot","stars":1,"isOnLaF":false},{"urlMichelin":"https://restaurant.michelin.fr/2dl7htu/auberge-le-prieure-moirax","address":{"thoroughfare":"4 Grand'Rue","postalcode":"47310","locality":"Moirax"},"name":"Auberge Le Prieuré","chef":"Benjamin Toursel","stars":1,"isOnLaF":false},{"urlMichelin":"https://restaurant.michelin.fr/3ffvej5j/table-bruno-verjus-paris-12","address":{"thoroughfare":"3 r. de Prague","postalcode":"75012","locality":"Paris"},"name":"Table - Bruno Verjus","chef":"","stars":1,"isOnLaF":false},{"urlMichelin":"https://restaurant.michelin.fr/6274yuk/haut-bonheur-de-la-table-cassel","address":{"thoroughfare":"18 Grand-Place","postalcode":"59670","locality":"Cassel"},"name":"Haut Bonheur de la Table","chef":"Eugène Hobraiche","stars":1,"isOnLaF":false},{"urlMichelin":"https://restaurant.michelin.fr/2f77d7t/leveil-des-sens-mayenne","address":{"thoroughfare":"429 bd Paul-Lintier","postalcode":"53100","locality":"Mayenne"},"name":"L'Éveil des Sens","chef":"Nicolas Nobis","stars":1,"isOnLaF":false},{"urlMichelin":"https://restaurant.michelin.fr/29hrl09/le-moulin-des-quatre-saisons-la-fleche","address":{"thoroughfare":"r. Gallieni","postalcode":"72200","locality":"La Flèche"},"name":"Le Moulin des Quatre Saisons","chef":"Camille Constantin","stars":1,"isOnLaF":false},{"urlMichelin":"https://restaurant.michelin.fr/27ym5i25/es-paris-07","address":{"thoroughfare":"91 r. de Grenelle","postalcode":"75007","locality":"Paris"},"name":"ES","chef":"Takayuki Honjo","stars":1,"isOnLaF":false},{"urlMichelin":"https://restaurant.michelin.fr/29rcoot/val-dauge-bondues","address":{"thoroughfare":"805 av. du Gén.-de-Gaulle","postalcode":"59910","locality":"Bondues"},"name":"Val d'Auge","chef":"Christophe Hagnerelle","stars":1,"isOnLaF":false},{"urlMichelin":"https://restaurant.michelin.fr/2di661r/le-serac-saint-gervais-les-bains","address":{"thoroughfare":"22 r. de la Comtesse","postalcode":"74170","locality":"Saint-Gervais-les-Bains"},"name":"Le Sérac","chef":"Raphaël Le Mancq","stars":1,"isOnLaF":false},{"urlMichelin":"https://restaurant.michelin.fr/3ffziwd6/au-14-fevrier-platre-durand","address":{"thoroughfare":"Le Plâtre-Durand","postalcode":"71570","locality":"Saint-Amour-Bellevue"},"name":"Au 14 Février","chef":"Masafumi Hamano","stars":2,"isOnLaF":false},{"urlMichelin":"https://restaurant.michelin.fr/ua3c2rxf/lalchemille-kaysersberg-vignoble","address":{"thoroughfare":"53 rte de Lapoutroie","postalcode":"68240","locality":"Kaysersberg"},"name":"L'Alchémille","chef":"Jérôme Jaegle","stars":1,"isOnLaF":false},{"urlMichelin":"https://restaurant.michelin.fr/297c2t4/loree-de-la-foret-etouy","address":{"thoroughfare":"255 r. de la Forêt","postalcode":"60600","locality":"Étouy"},"name":"L'Orée de la Forêt","chef":"Nicolas Leclercq","stars":1,"isOnLaF":false},{"urlMichelin":"https://restaurant.michelin.fr/299lkwi1/palm-beach-ajaccio","address":{"thoroughfare":"route des Iles Sanguinaires","postalcode":"20000","locality":"Ajaccio"},"name":"Palm Beach","chef":"","stars":1,"isOnLaF":false},{"urlMichelin":"https://restaurant.michelin.fr/2ewldde/yamtcha-paris-01","address":{"thoroughfare":"121 r. St-Honoré","postalcode":"75001","locality":"Paris"},"name":"Yam'Tcha","chef":"Adeline Grattard","stars":1,"isOnLaF":false},{"urlMichelin":"https://restaurant.michelin.fr/29ifnwu/la-bonne-auberge-stiring-wendel","address":{"thoroughfare":"15 r. Nationale","postalcode":"57350","locality":"Stiring-Wendel"},"name":"La Bonne Auberge","chef":"Lydia Egloff","stars":1,"isOnLaF":false},{"urlMichelin":"https://restaurant.michelin.fr/2e29zv6/henri-et-joseph-lorient","address":{"thoroughfare":"4 r. Léo-le-Bourgo","postalcode":"56100","locality":"Lorient"},"name":"Henri et Joseph","chef":"Philippe Le Lay","stars":1,"isOnLaF":false},{"urlMichelin":"https://restaurant.michelin.fr/2cqrobi/les-pyrenees-saint-jean-pied-de-port","address":{"thoroughfare":"19 pl. Ch.-de-Gaulle","postalcode":"64220","locality":"Saint-Jean-Pied-de-Port"},"name":"Les Pyrénées","chef":"Philippe Arrambide","stars":1,"isOnLaF":false},{"urlMichelin":"https://restaurant.michelin.fr/2fe4uol/saturne-paris-02","address":{"thoroughfare":"17 r. N.-D.-des-Victoires","postalcode":"75002","locality":"Paris"},"name":"Saturne","chef":"Sven Chartier","stars":1,"isOnLaF":false},{"urlMichelin":"https://restaurant.michelin.fr/2aabj6o/gaya-rive-gauche-par-pierre-gagnaire-paris-07","address":{"thoroughfare":"44 r. du Bac","postalcode":"75007","locality":"Paris"},"name":"Gaya Rive Gauche par Pierre Gagnaire","chef":"","stars":1,"isOnLaF":false},{"urlMichelin":"https://restaurant.michelin.fr/2c38ubh/chateau-de-la-treyne-lacave","address":{"thoroughfare":"","postalcode":"46200","locality":"Lacave"},"name":"Château de la Treyne","chef":"","stars":1,"isOnLaF":false},{"urlMichelin":"https://restaurant.michelin.fr/3ffxvs0j/intuition-saint-lo","address":{"thoroughfare":"1 r. Alsace-Lorraine","postalcode":"50000","locality":"Saint-Lô"},"name":"Intuition","chef":"Mickaël Marion","stars":1,"isOnLaF":false},{"urlMichelin":"https://restaurant.michelin.fr/2b120tk/gavroche-strasbourg","address":{"thoroughfare":"4 r. Klein","postalcode":"67000","locality":"Strasbourg"},"name":"Gavroche","chef":"Benoit Fuchs","stars":1,"isOnLaF":false},{"urlMichelin":"https://restaurant.michelin.fr/6pz7edt2/le-neuvieme-art-lyon-06","address":{"thoroughfare":"173 r. Cuvier","postalcode":"69006","locality":"Lyon"},"name":"Le Neuvième Art","chef":"Christophe Roure","stars":2,"isOnLaF":false},{"urlMichelin":"https://restaurant.michelin.fr/2duw4bw/les-tables-de-gaspard-saint-crepin","address":{"thoroughfare":"r. Principale","postalcode":"05600","locality":"St-Crépin"},"name":"Les Tables de Gaspard","chef":"Sébastien Corniau","stars":1,"isOnLaF":false},{"urlMichelin":"https://restaurant.michelin.fr/9qoy529/st-james-paris-paris-16","address":{"thoroughfare":"43 av. Bugeaud","postalcode":"75116","locality":"Paris"},"name":"St-James Paris","chef":"","stars":1,"isOnLaF":false},{"urlMichelin":"https://restaurant.michelin.fr/29b4lr4/le-montgomerie-courchevel-1850","address":{"thoroughfare":"356 rte de l'Altiport","postalcode":"73120","locality":"Courchevel 1850"},"name":"Le Montgomerie","chef":"","stars":2,"isOnLaF":false},{"urlMichelin":"https://restaurant.michelin.fr/2nnu14s6/le-chateau-de-sable-porspoder","address":{"thoroughfare":"38 r. de l'Europe","postalcode":"29840","locality":"Porspoder"},"name":"Le Château de Sable","chef":"","stars":1,"isOnLaF":false},{"urlMichelin":"https://restaurant.michelin.fr/sv592kt5/mickael-feval-aix-en-provence","address":{"thoroughfare":"11 Petite-Rue-St-Jean","postalcode":"13100","locality":"Aix-en-Provence"},"name":"Mickaël Féval","chef":"","stars":1,"isOnLaF":false},{"urlMichelin":"https://restaurant.michelin.fr/2abdvpo/laurent-paris-08","address":{"thoroughfare":"41 av. Gabriel","postalcode":"75008","locality":"Paris"},"name":"Laurent","chef":"","stars":1,"isOnLaF":false},{"urlMichelin":"https://restaurant.michelin.fr/2ayc9n6/auberge-st-walfrid-sarreguemines","address":{"thoroughfare":"58 r. de Grosbliederstroff","postalcode":"57200","locality":"Sarreguemines"},"name":"Auberge St-Walfrid","chef":"Stephan Schneider","stars":1,"isOnLaF":false},{"urlMichelin":"https://restaurant.michelin.fr/2jtf0iqj/transparence-la-table-de-patrick-frechin-nancy","address":{"thoroughfare":"28 r. Stanislas","postalcode":"54000","locality":"Nancy"},"name":"Transparence \"La Table de Patrick Fréchin\"","chef":"","stars":1,"isOnLaF":false},{"urlMichelin":"https://restaurant.michelin.fr/2evgb1v/clovis-tourrettes-sur-loup","address":{"thoroughfare":"21 Grand-Rue","postalcode":"06140","locality":"Tourrettes-sur-Loup"},"name":"Clovis","chef":"Julien Bousseau","stars":1,"isOnLaF":false},{"urlMichelin":"https://restaurant.michelin.fr/suqhhtor/allium-quimper","address":{"thoroughfare":"88 bd de Créac'h-Gwen","postalcode":"29000","locality":"Quimper"},"name":"Allium","chef":"Lionel Hénaff","stars":1,"isOnLaF":false},{"urlMichelin":"https://restaurant.michelin.fr/2akcwpg8/maison-crouzil-et-hotel-lecrin-plancoet","address":{"thoroughfare":"20 les Quais","postalcode":"22130","locality":"Plancoët"},"name":"Maison Crouzil et Hôtel L'Écrin","chef":"","stars":1,"isOnLaF":false},{"urlMichelin":"https://restaurant.michelin.fr/28vc6i9/le-pot-detain-danjoutin","address":{"thoroughfare":"4 av. de la République","postalcode":"90400","locality":"Danjoutin"},"name":"Le Pot d'Étain","chef":"Philippe Zeiger","stars":1,"isOnLaF":false},{"urlMichelin":"https://restaurant.michelin.fr/hq8ezzf7/lhysope-la-jarrie","address":{"thoroughfare":"25 r. de l'Aurore","postalcode":"17220","locality":"La Jarrie"},"name":"L'Hysope","chef":"","stars":1,"isOnLaF":false},{"urlMichelin":"https://restaurant.michelin.fr/3g8qf775/etude-paris-16","address":{"thoroughfare":"14 r. Bouquet-de-Longchamp","postalcode":"75016","locality":"Paris"},"name":"Étude","chef":"Keisuke Yamagishi","stars":1,"isOnLaF":false},{"urlMichelin":"https://restaurant.michelin.fr/2c4fx70/chateau-de-codignat-bort-letang","address":{"thoroughfare":"Bort l'Etang","postalcode":"63190","locality":"Bort-l'Étang"},"name":"Château de Codignat","chef":"Barbet Matthieu","stars":1,"isOnLaF":false},{"urlMichelin":"https://restaurant.michelin.fr/2epn29l/laromate-nice","address":{"thoroughfare":"2 r. Gustave Deloye","postalcode":"06000","locality":"Nice"},"name":"L'Aromate","chef":"Mickaël Gracieux","stars":1,"isOnLaF":false},{"urlMichelin":"https://restaurant.michelin.fr/3ws5njk2/les-genets-brem-sur-mer","address":{"thoroughfare":"21 bis Rue de l'Océan","postalcode":"85470","locality":"Brem-sur-Mer"},"name":"Les Genêts","chef":"Nicolas Coutand","stars":1,"isOnLaF":false},{"urlMichelin":"https://restaurant.michelin.fr/29zciea/le-st-martin-montbeliard","address":{"thoroughfare":"1 r. du Gén.-Leclerc","postalcode":"25200","locality":"Montbéliard"},"name":"Le St-Martin","chef":"Olivier Prévôt-Carme","stars":1,"isOnLaF":false},{"urlMichelin":"https://restaurant.michelin.fr/szxhgy9t/locean-saint-jean-de-luz","address":{"thoroughfare":"43 bd Thiers","postalcode":"64500","locality":"Saint-Jean-de-Luz"},"name":"L'Océan","chef":"","stars":1,"isOnLaF":false},{"urlMichelin":"https://restaurant.michelin.fr/2f4vonu/baumaniere-1850-courchevel-1850","address":{"thoroughfare":"rte de Bellecôte","postalcode":"73120","locality":"Courchevel 1850"},"name":"Baumanière 1850","chef":"","stars":1,"isOnLaF":false},{"urlMichelin":"https://restaurant.michelin.fr/9idrgh03/pages-paris-16","address":{"thoroughfare":"4 r. Auguste-Vacquerie","postalcode":"75016","locality":"Paris"},"name":"Pages","chef":"Ryuji Teshima","stars":1,"isOnLaF":false},{"urlMichelin":"https://restaurant.michelin.fr/2arxchk/la-vieille-tour-plerin","address":{"thoroughfare":"75 r. de la Tour","postalcode":"22190","locality":"Plérin"},"name":"La Vieille Tour","chef":"Nicolas Adam","stars":1,"isOnLaF":false},{"urlMichelin":"https://restaurant.michelin.fr/2bgh04f/la-marine-carteret","address":{"thoroughfare":"11 r. de Paris","postalcode":"50270","locality":"Barneville-Carteret"},"name":"La Marine","chef":"","stars":1,"isOnLaF":false},{"urlMichelin":"https://restaurant.michelin.fr/2elahg3/azimut-le-praz","address":{"thoroughfare":"273 r. de la Madelon","postalcode":"73120","locality":"Courchevel-Saint-Bon"},"name":"Azimut","chef":"François Moureaux","stars":1,"isOnLaF":false},{"urlMichelin":"https://restaurant.michelin.fr/3ffpat6p/garance-paris-07","address":{"thoroughfare":"34 r. St-Dominique","postalcode":"75007","locality":"Paris"},"name":"Garance","chef":"Guillaume Iskandar","stars":1,"isOnLaF":false},{"urlMichelin":"https://restaurant.michelin.fr/u5aaw2ah/le-grand-restaurant-jean-francois-piege-paris-08","address":{"thoroughfare":"7 r. d'Aguesseau","postalcode":"75008","locality":"Paris"},"name":"Le Grand Restaurant - Jean-François Piège","chef":"","stars":2,"isOnLaF":false},{"urlMichelin":"https://restaurant.michelin.fr/j9cof0s1/rodolphe-rouen","address":{"thoroughfare":"35 r. Percière","postalcode":"76000","locality":"Rouen"},"name":"Rodolphe","chef":"Rodolphe Pottier","stars":1,"isOnLaF":false},{"urlMichelin":"https://restaurant.michelin.fr/5jdkm0u/lemulsion-saint-alban-de-roche","address":{"thoroughfare":"57 rte de Lyon","postalcode":"38080","locality":"Saint-Alban-de-Roche"},"name":"L'Émulsion","chef":"Romain Hubert","stars":1,"isOnLaF":false},{"urlMichelin":"https://restaurant.michelin.fr/2aqst5c/le-clos-st-pierre-saint-pons","address":{"thoroughfare":"pl. de la Mairie","postalcode":"06650","locality":"Le Rouret"},"name":"Le Clos St-Pierre","chef":"Daniel Ettlinger","stars":1,"isOnLaF":false},{"urlMichelin":"https://restaurant.michelin.fr/376ocf6f/le-pousse-pied-la-tranche-sur-mer","address":{"thoroughfare":"84 bd des Vendéens","postalcode":"85360","locality":"La Tranche-sur-Mer"},"name":"Le Pousse-Pied","chef":"Anthony Lumet","stars":1,"isOnLaF":false},{"urlMichelin":"https://restaurant.michelin.fr/3wsi04j3/garopapilles-bordeaux","address":{"thoroughfare":"62 r. Abbé-de-L'Epée","postalcode":"33000","locality":"Bordeaux"},"name":"Garopapilles","chef":"Tanguy Laviale","stars":1,"isOnLaF":false},{"urlMichelin":"https://restaurant.michelin.fr/2armsjm/auberge-du-paradis-platre-durand","address":{"thoroughfare":"Le Plâtre-Durand","postalcode":"71570","locality":"Saint-Amour-Bellevue"},"name":"Auberge du Paradis","chef":"Cyril Laugier","stars":1,"isOnLaF":false},{"urlMichelin":"https://restaurant.michelin.fr/2b3t8kh/le-pavillon-le-touquet-paris-plage","address":{"thoroughfare":"av. du Verger","postalcode":"62520","locality":"Le Touquet-Paris-Plage"},"name":"Le Pavillon","chef":"","stars":1,"isOnLaF":false},{"urlMichelin":"https://restaurant.michelin.fr/eiak4cnv/racine-reims","address":{"thoroughfare":"6 pl. Godinot","postalcode":"51100","locality":"Reims"},"name":"Racine","chef":"Kazuyuki Tanaka","stars":1,"isOnLaF":false},{"urlMichelin":"https://restaurant.michelin.fr/2alwjjs/chateau-de-vauchoux-vauchoux","address":{"thoroughfare":"","postalcode":"70170","locality":"Vauchoux"},"name":"Château de Vauchoux","chef":"Jean-Michel Turin","stars":1,"isOnLaF":false},{"urlMichelin":"https://restaurant.michelin.fr/2dkifdh/le-marcq-marcq-en-baroeul","address":{"thoroughfare":"944 av. de la République","postalcode":"59700","locality":"Marcq-en-Barœul"},"name":"Le Marcq","chef":"Abdelkader Belfatmi","stars":1,"isOnLaF":false},{"urlMichelin":"https://restaurant.michelin.fr/2e7dmcj/u-santa-marina-porto-vecchio","address":{"thoroughfare":"Marina di Santa Giulia","postalcode":"20137","locality":"Porto-Vecchio"},"name":"U Santa Marina","chef":"","stars":1,"isOnLaF":false},{"urlMichelin":"https://restaurant.michelin.fr/r9fvmyyv/peir-gordes","address":{"thoroughfare":"r. de la Combe","postalcode":"84220","locality":"Gordes"},"name":"Pèir","chef":"","stars":1,"isOnLaF":false},{"urlMichelin":"https://restaurant.michelin.fr/2d2itah0/palegrie-correncon-en-vercors","address":{"thoroughfare":"Les Ritons","postalcode":"38250","locality":"Corrençon-en-Vercors"},"name":"Palégrié","chef":"","stars":1,"isOnLaF":false},{"urlMichelin":"https://restaurant.michelin.fr/299w7ls/la-table-la-villa-calvi","address":{"thoroughfare":"chemin de Notre-Dame-de-la-Serra","postalcode":"20260","locality":"Calvi"},"name":"La Table by La Villa","chef":"","stars":1,"isOnLaF":false},{"urlMichelin":"https://restaurant.michelin.fr/5sermc3/pertinence-paris-07","address":{"thoroughfare":"29 r. de l'Exposition","postalcode":"75007","locality":"Paris"},"name":"Pertinence","chef":"Kwen Liew et Ryunosuke Naito","stars":1,"isOnLaF":false},{"urlMichelin":"https://restaurant.michelin.fr/2e6jtym/le-chateaubriand-paris-11","address":{"thoroughfare":"129 av. Parmentier","postalcode":"75011","locality":"Paris"},"name":"Le Chateaubriand","chef":"Inaki Aizpitarte","stars":1,"isOnLaF":false},{"urlMichelin":"https://restaurant.michelin.fr/294k5c0/jerome-feck-chalons-en-champagne","address":{"thoroughfare":"19 pl. Mgr-Tissier","postalcode":"51000","locality":"Châlons-en-Champagne"},"name":"Jérôme Feck","chef":"","stars":1,"isOnLaF":false},{"urlMichelin":"https://restaurant.michelin.fr/9pmxzh3/pierre-reboul-aix-en-provence","address":{"thoroughfare":"260 r. Guillaume-du-Vair","postalcode":"13546","locality":"Aix-en-Provence"},"name":"Pierre Reboul","chef":"","stars":1,"isOnLaF":false},{"urlMichelin":"https://restaurant.michelin.fr/ximkypex/ken-kawasaki-paris-18","address":{"thoroughfare":"15 r. Caulaincourt","postalcode":"75018","locality":"Paris"},"name":"Ken Kawasaki","chef":"","stars":1,"isOnLaF":false},{"urlMichelin":"https://restaurant.michelin.fr/2851256/le-skiff-club-la-teste-de-buch","address":{"thoroughfare":"1 av. Louis-Gaume","postalcode":"33260","locality":"La Teste-de-Buch"},"name":"Le Skiff Club","chef":"","stars":1,"isOnLaF":false},{"urlMichelin":"https://restaurant.michelin.fr/2851396/akrame-paris-08","address":{"thoroughfare":"7 r. Tronchet","postalcode":"75008","locality":"Paris"},"name":"Akrame","chef":"Akrame Benallal","stars":1,"isOnLaF":false},{"urlMichelin":"https://restaurant.michelin.fr/2851511/le-grand-cap-leucate","address":{"thoroughfare":"chemin du Phare","postalcode":"11370","locality":"Leucate"},"name":"Le Grand Cap","chef":"Erwan Houssin","stars":1,"isOnLaF":false},{"urlMichelin":"https://restaurant.michelin.fr/2851556/restaurant-h-paris-04","address":{"thoroughfare":"13 r. Jean-Beausire","postalcode":"75004","locality":"Paris"},"name":"Restaurant H","chef":"Hubert Duchenne","stars":1,"isOnLaF":false},{"urlMichelin":"https://restaurant.michelin.fr/2852091/sushi-b-paris-02","address":{"thoroughfare":"5 r. Rameau","postalcode":"75002","locality":"Paris"},"name":"Sushi B","chef":"","stars":1,"isOnLaF":false},{"urlMichelin":"https://restaurant.michelin.fr/2852181/divellec-paris-07","address":{"thoroughfare":"18 r. Fabert","postalcode":"75007","locality":"Paris"},"name":"Divellec","chef":"","stars":1,"isOnLaF":false},{"urlMichelin":"https://restaurant.michelin.fr/3614676/la-merise-laubach","address":{"thoroughfare":"7 r. d'Eschbach","postalcode":"67580","locality":"Laubach"},"name":"La Merise","chef":"Cédric Deckert","stars":1,"isOnLaF":false},{"urlMichelin":"https://restaurant.michelin.fr/3614956/jean-chauvel-boulogne-billancourt","address":{"thoroughfare":"33 av. Général-Leclerc","postalcode":"92100","locality":"Boulogne-Billancourt"},"name":"Jean Chauvel","chef":"","stars":1,"isOnLaF":false},{"urlMichelin":"https://restaurant.michelin.fr/3615586/montee-paris-14","address":{"thoroughfare":"9 r. Léopold-Robert","postalcode":"75014","locality":"Paris"},"name":"Montée","chef":"Takayuki Nameura","stars":1,"isOnLaF":false},{"urlMichelin":"https://restaurant.michelin.fr/3616226/lauberge-de-bagatelle-le-mans","address":{"thoroughfare":"489 av. Bollée","postalcode":"72000","locality":"Le Mans"},"name":"L'Auberge de Bagatelle","chef":"Jean-Sébastien Monné","stars":1,"isOnLaF":false},{"urlMichelin":"https://restaurant.michelin.fr/3616751/ima-rennes","address":{"thoroughfare":"20 bd de la Tour-d'Auvergne","postalcode":"35000","locality":"Rennes"},"name":"Ima","chef":"Julien Lemarié","stars":1,"isOnLaF":false},{"urlMichelin":"https://restaurant.michelin.fr/3616836/comice-paris-16","address":{"thoroughfare":"31 av. de Versailles","postalcode":"75016","locality":"Paris"},"name":"Comice","chef":"Noam Gedalof","stars":1,"isOnLaF":false},{"urlMichelin":"https://restaurant.michelin.fr/3623606/la-table-dhotes-le-quatrieme-mur-bordeaux","address":{"thoroughfare":"2 pl. de la Comédie","postalcode":"33000","locality":"Bordeaux"},"name":"La Table d'Hôtes - Le Quatrième Mur","chef":"Philippe Etchebest","stars":1,"isOnLaF":false},{"urlMichelin":"https://restaurant.michelin.fr/3623651/la-table-de-la-ferme-sartene","address":{"thoroughfare":"Vallée de l'Ortolo","postalcode":"20100","locality":"Sartène"},"name":"La Table de la Ferme","chef":"","stars":1,"isOnLaF":false},{"urlMichelin":"https://restaurant.michelin.fr/3636676/jean-sulpice-talloires-montmin","address":{"thoroughfare":"303 rte du Port","postalcode":"74290","locality":"Talloires"},"name":"Jean Sulpice","chef":"","stars":2,"isOnLaF":false},{"urlMichelin":"https://restaurant.michelin.fr/a22cmkwd/quinsou-paris-06","address":{"thoroughfare":"33 r. de l'Abbé-Grégoire","postalcode":"75006","locality":"Paris"},"name":"Quinsou","chef":"Antonin Bonnet","stars":1,"isOnLaF":false}]